{
"type": "FeatureCollection",
"name": "areas_prad_eco_38_areas",
"crs": { "type": "name", "properties": { "name": "urn:ogc:def:crs:OGC:1.3:CRS84" } },
"features": [
{ "type": "Feature", "properties": { "Área_Para": "Bota fora 01", "UTM_X__E_": 227972.0, "UTM_Y__N_": 8828658.0, "Atuacao": "Manutenção Média", "Gleba": "3" }, "geometry": { "type": "Point", "coordinates": [ -41.485964985027969, -10.586483093442725 ] } },
{ "type": "Feature", "properties": { "Área_Para": "Bota-fora 02", "UTM_X__E_": 226356.0, "UTM_Y__N_": 8826621.0, "Atuacao": "Manutenção Média", "Gleba": "4" }, "geometry": { "type": "Point", "coordinates": [ -41.500872699390492, -10.604771745393428 ] } },
{ "type": "Feature", "properties": { "Área_Para": "Bota-fora 04", "UTM_X__E_": 226722.0, "UTM_Y__N_": 8824949.0, "Atuacao": "Área Consolidada", "Gleba": "33" }, "geometry": { "type": "Point", "coordinates": [ -41.497652649767154, -10.619905810888801 ] } },
{ "type": "Feature", "properties": { "Área_Para": "Bota-fora 05", "UTM_X__E_": 224578.0, "UTM_Y__N_": 8821711.0, "Atuacao": "Manutenção Média", "Gleba": "5" }, "geometry": { "type": "Point", "coordinates": [ -41.51747485201107, -10.649006214606411 ] } },
{ "type": "Feature", "properties": { "Área_Para": "Bota-fora 07", "UTM_X__E_": 226774.0, "UTM_Y__N_": 8821741.0, "Atuacao": "Manutenção Média", "Gleba": "6" }, "geometry": { "type": "Point", "coordinates": [ -41.497413543641009, -10.648895716813565 ] } },
{ "type": "Feature", "properties": { "Área_Para": "Bota-fora 08", "UTM_X__E_": 225732.0, "UTM_Y__N_": 8820369.0, "Atuacao": "Manutenção Básica", "Gleba": "31" }, "geometry": { "type": "Point", "coordinates": [ -41.507033055816827, -10.661216391047803 ] } },
{ "type": "Feature", "properties": { "Área_Para": "Bota-fora 09", "UTM_X__E_": 225449.0, "UTM_Y__N_": 8819763.0, "Atuacao": "Manutenção Média", "Gleba": "7" }, "geometry": { "type": "Point", "coordinates": [ -41.509663084149523, -10.666671164982631 ] } },
{ "type": "Feature", "properties": { "Área_Para": "Bota-fora 10", "UTM_X__E_": 224550.0, "UTM_Y__N_": 8818666.0, "Atuacao": "Manutenção Média", "Gleba": "8" }, "geometry": { "type": "Point", "coordinates": [ -41.517956926232472, -10.676517004785936 ] } },
{ "type": "Feature", "properties": { "Área_Para": "Bota-fora 11", "UTM_X__E_": 222305.0, "UTM_Y__N_": 8823151.0, "Atuacao": "Reforma da Gleba", "Gleba": "1" }, "geometry": { "type": "Point", "coordinates": [ -41.538129282924395, -10.635827853103384 ] } },
{ "type": "Feature", "properties": { "Área_Para": "Bota-fora 13", "UTM_X__E_": 220232.0, "UTM_Y__N_": 8822849.0, "Atuacao": "Manutenção Média", "Gleba": "9" }, "geometry": { "type": "Point", "coordinates": [ -41.557086180381766, -10.638402659607415 ] } },
{ "type": "Feature", "properties": { "Área_Para": "Bota-fora 15", "UTM_X__E_": 218801.0, "UTM_Y__N_": 8819396.0, "Atuacao": "Manutenção Média", "Gleba": "10" }, "geometry": { "type": "Point", "coordinates": [ -41.57041820703877, -10.669493827134596 ] } },
{ "type": "Feature", "properties": { "Área_Para": "Bota-fora 16", "UTM_X__E_": 218827.0, "UTM_Y__N_": 8818909.0, "Atuacao": "Manutenção Média", "Gleba": "11" }, "geometry": { "type": "Point", "coordinates": [ -41.570217688093699, -10.673895845508136 ] } },
{ "type": "Feature", "properties": { "Área_Para": "Bota-fora 18", "UTM_X__E_": 218095.0, "UTM_Y__N_": 8816377.0, "Atuacao": "Manutenção Média", "Gleba": "12" }, "geometry": { "type": "Point", "coordinates": [ -41.577097271836266, -10.696717372171509 ] } },
{ "type": "Feature", "properties": { "Área_Para": "Bota-fora 20", "UTM_X__E_": 217225.0, "UTM_Y__N_": 8815083.0, "Atuacao": "Manutenção Média", "Gleba": "13" }, "geometry": { "type": "Point", "coordinates": [ -41.585144080203222, -10.708342787999131 ] } },
{ "type": "Feature", "properties": { "Área_Para": "Bota-fora 21", "UTM_X__E_": 215807.0, "UTM_Y__N_": 8815300.0, "Atuacao": "Manutenção Média", "Gleba": "14" }, "geometry": { "type": "Point", "coordinates": [ -41.598081573902789, -10.706274481988691 ] } },
{ "type": "Feature", "properties": { "Área_Para": "Bota-fora 22", "UTM_X__E_": 217329.0, "UTM_Y__N_": 8819717.0, "Atuacao": "Área Consolidada", "Gleba": "37" }, "geometry": { "type": "Point", "coordinates": [ -41.583839682701942, -10.666482779281093 ] } },
{ "type": "Feature", "properties": { "Área_Para": "Bota-fora 23", "UTM_X__E_": 217079.0, "UTM_Y__N_": 8820100.0, "Atuacao": "Manutenção Média", "Gleba": "15" }, "geometry": { "type": "Point", "coordinates": [ -41.586094026605451, -10.663003524782084 ] } },
{ "type": "Feature", "properties": { "Área_Para": "Bota-fora 24", "UTM_X__E_": 217164.0, "UTM_Y__N_": 8821967.0, "Atuacao": "Manutenção Básica", "Gleba": "32" }, "geometry": { "type": "Point", "coordinates": [ -41.585175255062858, -10.646141698947879 ] } },
{ "type": "Feature", "properties": { "Área_Para": "Bota-fora 25", "UTM_X__E_": 216343.0, "UTM_Y__N_": 8819896.0, "Atuacao": "Área Consolidada", "Gleba": "38" }, "geometry": { "type": "Point", "coordinates": [ -41.592832419170868, -10.664790995347268 ] } },
{ "type": "Feature", "properties": { "Área_Para": "Bota-fora 26", "UTM_X__E_": 215903.0, "UTM_Y__N_": 8821601.0, "Atuacao": "Manutenção Média", "Gleba": "16" }, "geometry": { "type": "Point", "coordinates": [ -41.596720857810674, -10.649353215734649 ] } },
{ "type": "Feature", "properties": { "Área_Para": "Bota-fora 27", "UTM_X__E_": 216231.0, "UTM_Y__N_": 8821526.0, "Atuacao": "Manutenção Média", "Gleba": "17" }, "geometry": { "type": "Point", "coordinates": [ -41.593730718985917, -10.650055654958834 ] } },
{ "type": "Feature", "properties": { "Área_Para": "Bota-fora 28", "UTM_X__E_": 216231.0, "UTM_Y__N_": 8821526.0, "Atuacao": "Manutenção Média", "Gleba": "18" }, "geometry": { "type": "Point", "coordinates": [ -41.593730718985917, -10.650055654958834 ] } },
{ "type": "Feature", "properties": { "Área_Para": "Bota-fora 29", "UTM_X__E_": 213959.0, "UTM_Y__N_": 8822660.0, "Atuacao": "Manutenção Média", "Gleba": "19" }, "geometry": { "type": "Point", "coordinates": [ -41.614395156299842, -10.639637718727393 ] } },
{ "type": "Feature", "properties": { "Área_Para": "Caixa de empréstimo 01", "UTM_X__E_": 226315.0, "UTM_Y__N_": 8824191.0, "Atuacao": "Manutenção Média", "Gleba": "20" }, "geometry": { "type": "Point", "coordinates": [ -41.501425769117034, -10.626725176142733 ] } },
{ "type": "Feature", "properties": { "Área_Para": "Caixa de empréstimo 02", "UTM_X__E_": 225676.0, "UTM_Y__N_": 8822520.0, "Atuacao": "Manutenção Média", "Gleba": "21" }, "geometry": { "type": "Point", "coordinates": [ -41.507385563283812, -10.641776939951814 ] } },
{ "type": "Feature", "properties": { "Área_Para": "Caixa de empréstimo 05", "UTM_X__E_": 226665.0, "UTM_Y__N_": 8821076.0, "Atuacao": "Manutenção Média", "Gleba": "22" }, "geometry": { "type": "Point", "coordinates": [ -41.498458190666888, -10.654896423684503 ] } },
{ "type": "Feature", "properties": { "Área_Para": "Caixa de empréstimo 06", "UTM_X__E_": 224689.0, "UTM_Y__N_": 8819962.0, "Atuacao": "Reforma da Gleba", "Gleba": "2" }, "geometry": { "type": "Point", "coordinates": [ -41.516590793572696, -10.664817328435364 ] } },
{ "type": "Feature", "properties": { "Área_Para": "Caixa de empréstimo 09", "UTM_X__E_": 218890.0, "UTM_Y__N_": 8818839.0, "Atuacao": "Manutenção Média", "Gleba": "23" }, "geometry": { "type": "Point", "coordinates": [ -41.569647518921663, -10.674533030773727 ] } },
{ "type": "Feature", "properties": { "Área_Para": "Caixa de empréstimo 12", "UTM_X__E_": 217228.0, "UTM_Y__N_": 8819671.0, "Atuacao": "Manutenção Média", "Gleba": "24" }, "geometry": { "type": "Point", "coordinates": [ -41.584765763122313, -10.666890763105945 ] } },
{ "type": "Feature", "properties": { "Área_Para": "Caixa de empréstimo 14", "UTM_X__E_": 215304.0, "UTM_Y__N_": 8820441.0, "Atuacao": "Área Consolidada", "Gleba": "34" }, "geometry": { "type": "Point", "coordinates": [ -41.602280994142852, -10.659788205352411 ] } },
{ "type": "Feature", "properties": { "Área_Para": "Caixa de empréstimo 16", "UTM_X__E_": 214562.0, "UTM_Y__N_": 8822918.0, "Atuacao": "Área Consolidada", "Gleba": "35" }, "geometry": { "type": "Point", "coordinates": [ -41.60886792261342, -10.637352625851074 ] } },
{ "type": "Feature", "properties": { "Área_Para": "Canteiro de apoio 04", "UTM_X__E_": 224330.0, "UTM_Y__N_": 8821601.0, "Atuacao": "Área Consolidada", "Gleba": "36" }, "geometry": { "type": "Point", "coordinates": [ -41.519748329522734, -10.649981895871454 ] } },
{ "type": "Feature", "properties": { "Área_Para": "Canteiro de apoio 05", "UTM_X__E_": 216906.0, "UTM_Y__N_": 8819785.0, "Atuacao": "Manutenção Média", "Gleba": "25" }, "geometry": { "type": "Point", "coordinates": [ -41.587698312652911, -10.665836458386611 ] } },
{ "type": "Feature", "properties": { "Área_Para": "Canteiro principal", "UTM_X__E_": 228949.0, "UTM_Y__N_": 8828498.0, "Atuacao": "Manutenção Média", "Gleba": "26" }, "geometry": { "type": "Point", "coordinates": [ -41.477053947504061, -10.587999100561172 ] } },
{ "type": "Feature", "properties": { "Área_Para": "Jazida Santo Anjo", "UTM_X__E_": 218797.0, "UTM_Y__N_": 8820414.0, "Atuacao": "Manutenção Média", "Gleba": "30" }, "geometry": { "type": "Point", "coordinates": [ -41.570377489775233, -10.660295850506248 ] } },
{ "type": "Feature", "properties": { "Área_Para": "Jazida Santo Antonio", "UTM_X__E_": 219231.0, "UTM_Y__N_": 8820422.0, "Atuacao": "Manutenção Média", "Gleba": "27" }, "geometry": { "type": "Point", "coordinates": [ -41.566412605614438, -10.660256108232847 ] } },
{ "type": "Feature", "properties": { "Área_Para": "Jazido Campo Alegre", "UTM_X__E_": 218992.0, "UTM_Y__N_": 8818322.0, "Atuacao": "Manutenção Média", "Gleba": "28" }, "geometry": { "type": "Point", "coordinates": [ -41.568755033741581, -10.679211811561599 ] } },
{ "type": "Feature", "properties": { "Área_Para": "Jazida do Meio", "UTM_X__E_": 218398.0, "UTM_Y__N_": 8824227.0, "Atuacao": "Manutenção Média", "Gleba": "29" }, "geometry": { "type": "Point", "coordinates": [ -41.573732908621949, -10.625815310022329 ] } }
]
}
