{
"type": "FeatureCollection",
"name": "Umburanas_BA_limite_IBGE",
"crs": { "type": "name", "properties": { "name": "urn:ogc:def:crs:EPSG::4674" } },
"features": [
{ "type": "Feature", "properties": { "code_muni": 2932457.0, "name_muni": "Umburanas", "code_state": 29.0, "abbrev_state": "BA", "name_state": "Bahia", "code_region": 2.0, "name_region": "Nordeste", "year": 2022.0 }, "geometry": { "type": "Polygon", "coordinates": [ [ [ -41.110999324, -10.657668031 ], [ -41.1157248, -10.6702097419999 ], [ -41.115665313, -10.6732435549999 ], [ -41.113523798, -10.6755635289999 ], [ -41.089967133999899, -10.670328714999899 ], [ -41.085208211999898, -10.670745121 ], [ -41.080330316999898, -10.674611744999899 ], [ -41.078664694999901, -10.683891643 ], [ -41.079140587, -10.691624890999899 ], [ -41.0855651319999, -10.701083248 ], [ -41.100853168, -10.709708794999898 ], [ -41.100975844999901, -10.713284363 ], [ -41.102733774999891, -10.715288845 ], [ -41.12443446, -10.718239375999898 ], [ -41.138687430999894, -10.723694291 ], [ -41.158764134, -10.7260737519999 ], [ -41.165753799999891, -10.725478887 ], [ -41.175801073999899, -10.723432549999899 ], [ -41.180369638999899, -10.720482017999899 ], [ -41.187127308999898, -10.711630423 ], [ -41.18968885, -10.700925734999901 ], [ -41.192821523, -10.700260579 ], [ -41.195451240999901, -10.696794767 ], [ -41.193875582, -10.6874804519999 ], [ -41.189249666, -10.681126811 ], [ -41.187868389999899, -10.674971177 ], [ -41.184799729, -10.671369653999898 ], [ -41.18329225, -10.654741434999899 ], [ -41.179327794999899, -10.650642875999898 ], [ -41.18101188, -10.647994808 ], [ -41.190739116, -10.645120419 ], [ -41.2810165389999, -10.642481067999899 ], [ -41.304090436, -10.673788865999898 ], [ -41.307408752999905, -10.680707556 ], [ -41.295612362999989, -10.700436690999902 ], [ -41.28075244, -10.738138406 ], [ -41.298607424, -10.7482529499999 ], [ -41.331989334, -10.7569451919999 ], [ -41.443231738999891, -10.801866423 ], [ -41.442749302, -10.800238861 ], [ -41.437593905999989, -10.7976611459999 ], [ -41.436393938, -10.7951723489999 ], [ -41.441081564999898, -10.785747643 ], [ -41.4433354, -10.786087904999899 ], [ -41.446656826, -10.789409335 ], [ -41.453502688999897, -10.790036491 ], [ -41.456043339, -10.7813658219999 ], [ -41.46036685699989, -10.776787984999901 ], [ -41.460279313999898, -10.774907689 ], [ -41.467666146999903, -10.7700025349999 ], [ -41.469445704999892, -10.765880183 ], [ -41.475001082999903, -10.764352459 ], [ -41.478959287, -10.7546999739999 ], [ -41.494321758999902, -10.752071864 ], [ -41.502690234999903, -10.748853079 ], [ -41.504024531, -10.745406811999898 ], [ -41.505903526999909, -10.744622733 ], [ -41.513993695000011, -10.745217598 ], [ -41.519466455, -10.742957111 ], [ -41.5280325149999, -10.742719163999897 ], [ -41.535380136, -10.734992023 ], [ -41.542878005, -10.741599992 ], [ -41.556343252, -10.743039114999901 ], [ -41.560204966999898, -10.744799094 ], [ -41.568235804, -10.7542907119999 ], [ -41.575419855, -10.757180237999899 ], [ -41.581701632, -10.753896582 ], [ -41.586984034999894, -10.7479003399999 ], [ -41.59076737800001, -10.73783522 ], [ -41.591338449, -10.7312679079999 ], [ -41.589910771999897, -10.724343675999901 ], [ -41.585984661999895, -10.720488949 ], [ -41.570066068, -10.713279182 ], [ -41.557383539999897, -10.702524019 ], [ -41.557621486999899, -10.698954827 ], [ -41.56047684, -10.694671797 ], [ -41.559763001, -10.692530282 ], [ -41.555384793, -10.690412561999899 ], [ -41.554242652, -10.688271046999898 ], [ -41.551815602, -10.678491462 ], [ -41.548603328999903, -10.674137049 ], [ -41.546033511, -10.664571615999902 ], [ -41.540180037, -10.664857151 ], [ -41.539537583, -10.673851512999899 ], [ -41.532970271, -10.679419451999898 ], [ -41.520763636, -10.677206553 ], [ -41.508576036, -10.670453643 ], [ -41.503893257, -10.665999292 ], [ -41.498468085999896, -10.658575374 ], [ -41.496079945, -10.651506281 ], [ -41.49666639, -10.6483624429999 ], [ -41.499918792999893, -10.644058526 ], [ -41.505018021, -10.643008493 ], [ -41.505817517, -10.640123891 ], [ -41.501500902, -10.637657261 ], [ -41.50302855599989, -10.631969784 ], [ -41.49565182899989, -10.6183091 ], [ -41.494477623, -10.617762243999898 ], [ -41.492529824, -10.6195732639999 ], [ -41.489633792999896, -10.629286878 ], [ -41.485263088, -10.633710440999899 ], [ -41.481366365, -10.630440345 ], [ -41.474098379999909, -10.6299957709999 ], [ -41.471809285999896, -10.628245821999899 ], [ -41.471029735999899, -10.618440692 ], [ -41.46588049, -10.6119121679999 ], [ -41.462838178, -10.603158946 ], [ -41.457066649999902, -10.597690479999898 ], [ -41.4518534649999, -10.595216728 ], [ -41.439696555999902, -10.593487764 ], [ -41.434966699, -10.589299605 ], [ -41.430357063, -10.589433705 ], [ -41.4272672869999, -10.576280239 ], [ -41.41360672, -10.576249666 ], [ -41.407261201, -10.572946432 ], [ -41.401488104, -10.573651504999898 ], [ -41.391769245, -10.567702317999899 ], [ -41.391062921999897, -10.560971514999901 ], [ -41.397366874999896, -10.547576599 ], [ -41.386967586, -10.534714331 ], [ -41.385221337, -10.527559944 ], [ -41.381024974, -10.522836696999899 ], [ -41.38152222, -10.518740508 ], [ -41.38768468300001, -10.513668003 ], [ -41.394371175999893, -10.513290707 ], [ -41.398877754, -10.507253996 ], [ -41.407393761, -10.505058468 ], [ -41.414810648, -10.499655314999899 ], [ -41.424926787999894, -10.498519238 ], [ -41.432036486999898, -10.495345632 ], [ -41.435340654999905, -10.491445745 ], [ -41.440161225999901, -10.489109568999901 ], [ -41.448785380999894, -10.4896485379999 ], [ -41.4530027919999, -10.488272179 ], [ -41.45891856, -10.482683930999899 ], [ -41.464078357999902, -10.474025742 ], [ -41.473082976999898, -10.4653731 ], [ -41.473194699, -10.461952539 ], [ -41.465198794999893, -10.458274409 ], [ -41.458614951, -10.457982783 ], [ -41.449212440999901, -10.45332947 ], [ -41.44570848099989, -10.4414729489999 ], [ -41.435392712999892, -10.440612221 ], [ -41.428655326, -10.433835045 ], [ -41.412995248, -10.432153760999899 ], [ -41.409245612999889, -10.428380307999898 ], [ -41.402659522, -10.426557212 ], [ -41.389419394, -10.415852635 ], [ -41.38459204, -10.417691616 ], [ -41.377236078999893, -10.416542246999898 ], [ -41.36910276, -10.40567448 ], [ -41.367880193, -10.399778690999899 ], [ -41.364606957, -10.393939177999899 ], [ -41.354319879999892, -10.387797043 ], [ -41.353793627999892, -10.386006763 ], [ -41.357213637, -10.378254668999899 ], [ -41.3620527369999, -10.376599169 ], [ -41.361463417, -10.369972140999902 ], [ -41.349698471, -10.368302888999896 ], [ -41.335088878, -10.3780711819999 ], [ -41.332960845999892, -10.377831439 ], [ -41.331696604999891, -10.375562717 ], [ -41.333431855, -10.368983329999898 ], [ -41.328651709, -10.369219988999898 ], [ -41.323711018, -10.364925313999899 ], [ -41.325841688, -10.360041592999899 ], [ -41.326118701, -10.354044756 ], [ -41.318929312, -10.351156424999898 ], [ -41.313870522999892, -10.34442495 ], [ -41.308035224, -10.345109018 ], [ -41.299657013999898, -10.339867296 ], [ -41.28829101, -10.335744749 ], [ -41.283975927, -10.336730309 ], [ -41.284800833, -10.341533758 ], [ -41.2789132999999, -10.347105886 ], [ -41.266902057, -10.345291048 ], [ -41.259956111, -10.351684380999899 ], [ -41.258096032, -10.359614529999901 ], [ -41.256087960999899, -10.362177249999899 ], [ -41.258491734, -10.368974899 ], [ -41.257756717999897, -10.383585089 ], [ -41.254943802, -10.388503346999901 ], [ -41.25245661, -10.38792432 ], [ -41.250441737, -10.392113940999899 ], [ -41.250436023, -10.401513311 ], [ -41.255113918999911, -10.40457133 ], [ -41.25580396, -10.414200736999899 ], [ -41.252165615, -10.42116737 ], [ -41.251009108999895, -10.427935797 ], [ -41.244762276999893, -10.43276975 ], [ -41.239004687, -10.43199679 ], [ -41.2329006739999, -10.436413817999899 ], [ -41.232996337, -10.442143171999898 ], [ -41.229866495, -10.4488169539999 ], [ -41.222023491999899, -10.455288595999896 ], [ -41.212094439999895, -10.4568435149999 ], [ -41.211237733, -10.4537186929999 ], [ -41.205495036999899, -10.452529279 ], [ -41.201844122, -10.450150383999897 ], [ -41.195949766999895, -10.442960554 ], [ -41.192457775, -10.442388055 ], [ -41.192534411999901, -10.437687664 ], [ -41.185353047, -10.4344108609999 ], [ -41.181566846, -10.430911848999898 ], [ -41.175207261, -10.430232138 ], [ -41.16947780999989, -10.433524866 ], [ -41.162688127, -10.434040899 ], [ -41.161656971999911, -10.438097027 ], [ -41.153684122, -10.44449581 ], [ -41.152713306999892, -10.446725821 ], [ -41.141679005, -10.45150001 ], [ -41.140029733999903, -10.4506795459999 ], [ -41.134632977, -10.451999166 ], [ -41.124158884999893, -10.458667198999896 ], [ -41.122541105, -10.457105279 ], [ -41.115099020999899, -10.4638794009999 ], [ -41.106661704, -10.466664971999901 ], [ -41.100841204999895, -10.464805292999902 ], [ -41.100315611, -10.4599821469999 ], [ -41.092821176, -10.461766849999899 ], [ -41.080968014, -10.461790258 ], [ -41.07406512499989, -10.459177883999899 ], [ -41.063345818, -10.459428220999898 ], [ -41.051152594, -10.452185453 ], [ -41.044454827, -10.452951523 ], [ -41.038326234999893, -10.4513999079999 ], [ -41.02928916, -10.443503209 ], [ -41.029502524999891, -10.439795853 ], [ -41.026269938, -10.434157962 ], [ -41.018710267, -10.431512160999898 ], [ -41.009261392, -10.436127445 ], [ -41.006992701999899, -10.446880169999899 ], [ -41.00208964, -10.451285945999901 ], [ -40.996841967, -10.4529467849999 ], [ -40.994935607999892, -10.451155384999899 ], [ -40.967163671, -10.451438883 ], [ -40.962808918, -10.4635721079999 ], [ -40.963824810999895, -10.467689594 ], [ -40.966582640999896, -10.470543468999898 ], [ -40.965381331999893, -10.474279786999897 ], [ -40.966306345, -10.476286215999901 ], [ -40.963466007, -10.478173072999898 ], [ -40.957020735, -10.479039885 ], [ -40.957318081, -10.48174354 ], [ -40.95379323, -10.484458962 ], [ -40.94604792, -10.486321549 ], [ -40.9431154379999, -10.493682219999901 ], [ -40.94626829, -10.496443455 ], [ -40.946335817, -10.498183122999899 ], [ -40.943727856999899, -10.502528084999899 ], [ -40.943640845999902, -10.507314057 ], [ -40.941841078, -10.509300196 ], [ -40.934985105999893, -10.510937568 ], [ -40.933722633999899, -10.5069507219999 ], [ -40.930713426999901, -10.508501257 ], [ -40.930163069999892, -10.5107743899999 ], [ -40.927529046, -10.512737511999898 ], [ -40.924492846, -10.512745099 ], [ -40.92262628399989, -10.515630084 ], [ -40.913492955, -10.512992444 ], [ -40.909467719, -10.516454461 ], [ -40.905731365, -10.5158070979999 ], [ -40.900452005, -10.517512904999897 ], [ -40.897856524, -10.515509924999899 ], [ -40.899757366, -10.514309814999899 ], [ -40.898375906999895, -10.509771145999899 ], [ -40.893370655999902, -10.5105884009999 ], [ -40.890912833, -10.5061230059999 ], [ -40.888981362, -10.505290209999901 ], [ -40.891171019, -10.499748638 ], [ -40.885824487, -10.498201950999897 ], [ -40.883699921, -10.494435064999898 ], [ -40.882353172, -10.494069688 ], [ -40.881273850999897, -10.4962356799999 ], [ -40.872432430999901, -10.500544744 ], [ -40.87182404, -10.504782535999897 ], [ -40.878168257, -10.5093906019999 ], [ -40.876522982, -10.512840862 ], [ -40.876832017, -10.516668282 ], [ -40.878691503, -10.519180251 ], [ -40.877855672, -10.522650143 ], [ -40.882553301, -10.524843331999898 ], [ -40.881633614, -10.522465928 ], [ -40.884456792, -10.519689324 ], [ -40.88722176999989, -10.5204294929999 ], [ -40.882228657, -10.528700692 ], [ -40.883491918999901, -10.530036488 ], [ -40.885193867999902, -10.527795365 ], [ -40.887075814999903, -10.529922957999899 ], [ -40.881831631, -10.533874667 ], [ -40.884601736, -10.535732121 ], [ -40.884289013999897, -10.537633222 ], [ -40.888167070999899, -10.536010104 ], [ -40.895902444999898, -10.5401437849999 ], [ -40.896220189, -10.541606289 ], [ -40.892852930999901, -10.541163642 ], [ -40.892127939, -10.542567316 ], [ -40.895212793, -10.551047922 ], [ -40.896996359999903, -10.551245126 ], [ -40.897017921, -10.548651528999899 ], [ -40.903916152, -10.544493444999899 ], [ -40.904457088, -10.552236198999898 ], [ -40.913062544999896, -10.5499794839999 ], [ -40.912136034999897, -10.552317297999901 ], [ -40.913128103, -10.557036265 ], [ -40.916720551, -10.558559338 ], [ -40.914833149999893, -10.555467516 ], [ -40.916930315999892, -10.552899332 ], [ -40.922105656, -10.55849409 ], [ -40.922898475999894, -10.563170813999898 ], [ -40.9192507079999, -10.5626072589999 ], [ -40.919611533, -10.559515339 ], [ -40.915822843999898, -10.563329548 ], [ -40.920158531, -10.5663883829999 ], [ -40.920903196, -10.570666765999899 ], [ -40.919808571, -10.573584132999899 ], [ -40.922264325999897, -10.57710093 ], [ -40.920447382, -10.579928713 ], [ -40.924566462, -10.580878054 ], [ -40.922579986, -10.582748679 ], [ -40.924749764, -10.583899726 ], [ -40.923620733, -10.587013478 ], [ -40.930558607, -10.587532406 ], [ -40.930065048, -10.591887019 ], [ -40.933302077999898, -10.594056515 ], [ -40.931689327999891, -10.599138437 ], [ -40.93426533, -10.605136353 ], [ -40.937650639, -10.601363279999896 ], [ -40.940612969, -10.60095452 ], [ -41.110999324, -10.657668031 ] ] ] } }
]
}
