{
"type": "FeatureCollection",
"name": "spe",
"crs": { "type": "name", "properties": { "name": "urn:ogc:def:crs:OGC:1.3:CRS84" } },
"features": [
{ "type": "Feature", "properties": { "NAME": "UM-10", "LAYER": "Unknown Area Type", "KML_STYLE": "style0111117", "KML_FOLDER": "SPEs", "FID_1": 0, "SPE": "UMBURANAS 10", "CONTRATO": "MERCADO LIVRE", "HECTARES": 280.253, "Shape_Leng": 7034.2021069399998, "Shape_Area": 2802530.9471999998 }, "geometry": { "type": "Polygon", "coordinates": [ [ [ -41.591720999525052, -10.649170999573588 ], [ -41.591847000229059, -10.664035999739884 ], [ -41.607674999430245, -10.663904000023054 ], [ -41.607606999872502, -10.659679000073631 ], [ -41.603781000076303, -10.655627999885876 ], [ -41.603704999770677, -10.646654999660482 ], [ -41.591700999763901, -10.646754999767998 ], [ -41.591720999525052, -10.649170999573588 ] ] ] } },
{ "type": "Feature", "properties": { "NAME": "UM-01", "LAYER": "Unknown Area Type", "KML_STYLE": "style011510", "KML_FOLDER": "SPEs", "FID_1": 1, "SPE": "UMBURANAS 01", "CONTRATO": "MERCADO LIVRE", "HECTARES": 248.221, "Shape_Leng": 8549.5430559300003, "Shape_Area": 2482207.78889 }, "geometry": { "type": "Polygon", "coordinates": [ [ [ -41.518773999524548, -10.679841000261273 ], [ -41.525097999703625, -10.681404999884561 ], [ -41.525063999366495, -10.677316000119166 ], [ -41.523803999618217, -10.676287999692258 ], [ -41.517235999735902, -10.670928000203897 ], [ -41.521765000219055, -10.666737999934776 ], [ -41.523551000263154, -10.666724000406319 ], [ -41.52349899971383, -10.660396000310756 ], [ -41.521430999709295, -10.656634999582806 ], [ -41.515032999997388, -10.656687000223595 ], [ -41.515084999515963, -10.663015000094767 ], [ -41.51275799985013, -10.665167999702602 ], [ -41.514232999918242, -10.667125999591439 ], [ -41.5088180001189, -10.67155900006839 ], [ -41.510407999822668, -10.673713999949795 ], [ -41.518773999524548, -10.679841000261273 ] ] ] } },
{ "type": "Feature", "properties": { "NAME": "UM-15", "LAYER": "Unknown Area Type", "KML_STYLE": "style01310", "KML_FOLDER": "SPEs", "FID_1": 2, "SPE": "UMBURANAS 15", "CONTRATO": "MERCADO LIVRE", "HECTARES": 245.846, "Shape_Leng": 7936.2500429800002, "Shape_Area": 2458456.2629900002 }, "geometry": { "type": "Polygon", "coordinates": [ [ [ -41.511694000028044, -10.637502000060282 ], [ -41.502299000130982, -10.646869999549567 ], [ -41.495567999527935, -10.646923999802585 ], [ -41.496852000096688, -10.654093000177069 ], [ -41.501170000271095, -10.652219999761154 ], [ -41.502990999800303, -10.652205000171328 ], [ -41.520414000215141, -10.652064999671012 ], [ -41.520371000148799, -10.646828000322833 ], [ -41.515302999498346, -10.64686899996056 ], [ -41.515261999831395, -10.64182499999821 ], [ -41.511694000028044, -10.637502000060282 ] ] ] } },
{ "type": "Feature", "properties": { "NAME": "UM-02", "LAYER": "Unknown Area Type", "KML_STYLE": "style011410", "KML_FOLDER": "SPEs", "FID_1": 3, "SPE": "UMBURANAS 02", "CONTRATO": "MERCADO LIVRE", "HECTARES": 168.54, "Shape_Leng": 5896.6641494599999, "Shape_Area": 1685403.3988000001 }, "geometry": { "type": "Polygon", "coordinates": [ [ [ -41.497144999766689, -10.65572699970661 ], [ -41.5088180001189, -10.67155900006839 ], [ -41.514232999918242, -10.667125999591439 ], [ -41.51275799985013, -10.665167999702602 ], [ -41.502990999800303, -10.652205000171328 ], [ -41.501170000271095, -10.652219999761154 ], [ -41.496852000096688, -10.654093000177069 ], [ -41.497144999766689, -10.65572699970661 ] ] ] } },
{ "type": "Feature", "properties": { "NAME": "UM-03", "LAYER": "Unknown Area Type", "KML_STYLE": "style011810", "KML_FOLDER": "SPEs", "FID_1": 4, "SPE": "UMBURANAS 03", "CONTRATO": "MERCADO LIVRE", "HECTARES": 257.074, "Shape_Leng": 7223.0669376699998, "Shape_Area": 2570744.69019 }, "geometry": { "type": "Polygon", "coordinates": [ [ [ -41.494140000048397, -10.638986999617975 ], [ -41.495561999664538, -10.646923999701546 ], [ -41.502299000130982, -10.646869999549567 ], [ -41.511694000028044, -10.637502000060282 ], [ -41.504602000256384, -10.627140999723974 ], [ -41.497186999569941, -10.627199999933719 ], [ -41.499112999894855, -10.630058000300236 ], [ -41.499171999431404, -10.637295999779731 ], [ -41.493952000061377, -10.637337000102692 ], [ -41.494140000048397, -10.638986999617975 ] ] ] } },
{ "type": "Feature", "properties": { "NAME": "UM-19", "LAYER": "Unknown Area Type", "KML_STYLE": "style01910", "KML_FOLDER": "SPEs", "FID_1": 5, "SPE": "UMBURANAS 19", "CONTRATO": "A-5 2014", "HECTARES": 456.764, "Shape_Leng": 9559.1975184200001, "Shape_Area": 4567644.4342499999 }, "geometry": { "type": "Polygon", "coordinates": [ [ [ -41.490748000189811, -10.615680000095093 ], [ -41.497186999569941, -10.627199999933719 ], [ -41.504602000256384, -10.627140999723974 ], [ -41.503289999857188, -10.624236000118485 ], [ -41.508884999753072, -10.610645999913865 ], [ -41.503109000018, -10.60104800010094 ], [ -41.498748999616573, -10.593802000121325 ], [ -41.490601999936068, -10.59859999994636 ], [ -41.494863999499088, -10.605683999945931 ], [ -41.490748000189811, -10.615680000095093 ] ] ] } },
{ "type": "Feature", "properties": { "NAME": "UM-11", "LAYER": "Unknown Area Type", "KML_STYLE": "style011310", "KML_FOLDER": "SPEs", "FID_1": 6, "SPE": "UMBURANAS 11", "CONTRATO": "MERCADO LIVRE", "HECTARES": 335.394, "Shape_Leng": 8701.19813961, "Shape_Area": 3353938.5674399999 }, "geometry": { "type": "Polygon", "coordinates": [ [ [ -41.483946999960487, -10.583804999632159 ], [ -41.477751999852799, -10.589010999544001 ], [ -41.475133000093365, -10.585959999648367 ], [ -41.47501200016238, -10.585819000443255 ], [ -41.470035999650442, -10.589930000240676 ], [ -41.467446000227433, -10.592244999928651 ], [ -41.466244999410165, -10.593289000261363 ], [ -41.466380999861386, -10.593311999615729 ], [ -41.489792999457023, -10.597255000075505 ], [ -41.490601999936068, -10.59859999994636 ], [ -41.498748999616573, -10.593802000121325 ], [ -41.492692999440806, -10.583736000159735 ], [ -41.486964999751834, -10.58378200019051 ], [ -41.483946999960487, -10.583804999632159 ] ] ] } },
{ "type": "Feature", "properties": { "NAME": "UM-25", "LAYER": "Unknown Area Type", "KML_STYLE": "style01210", "KML_FOLDER": "SPEs", "FID_1": 7, "SPE": "UMBURANAS 25", "CONTRATO": "A-5 2014", "HECTARES": 556.269, "Shape_Leng": 12146.568224299999, "Shape_Area": 5562688.5357100004 }, "geometry": { "type": "Polygon", "coordinates": [ [ [ -41.535264999476716, -10.632500999909867 ], [ -41.525439000112129, -10.646787000077339 ], [ -41.520371000148799, -10.646828000322833 ], [ -41.520414000215141, -10.652064999671012 ], [ -41.523429999750505, -10.652041000312629 ], [ -41.529474000128658, -10.651991999803659 ], [ -41.531971999881947, -10.662462999774487 ], [ -41.538368999703103, -10.662410999766907 ], [ -41.53831700004072, -10.656082999733561 ], [ -41.536593999504184, -10.64990199983721 ], [ -41.548949000116131, -10.650007999648389 ], [ -41.549031000133731, -10.640639000112822 ], [ -41.547085999363659, -10.640654000420602 ], [ -41.547037000026052, -10.634663999738162 ], [ -41.538600000099507, -10.630022999889174 ], [ -41.536552999441952, -10.630628000074447 ], [ -41.535590999805756, -10.63202700033024 ], [ -41.535264999476716, -10.632500999909867 ] ] ] } },
{ "type": "Feature", "properties": { "NAME": "UM-13", "LAYER": "Unknown Area Type", "KML_STYLE": "style01410", "KML_FOLDER": "SPEs", "FID_1": 8, "SPE": "UMBURANAS 13", "CONTRATO": "MERCADO LIVRE", "HECTARES": 428.365, "Shape_Leng": 9867.5940391999993, "Shape_Area": 4283653.7833700003 }, "geometry": { "type": "Polygon", "coordinates": [ [ [ -41.565562999966154, -10.661801000222322 ], [ -41.565571999628588, -10.662953000160728 ], [ -41.572119999598229, -10.661398999994752 ], [ -41.565854000079447, -10.635547999967955 ], [ -41.552930999733114, -10.635653999547587 ], [ -41.550974999469346, -10.640623000144107 ], [ -41.549031000133731, -10.640639000112822 ], [ -41.548949000116131, -10.650007999648389 ], [ -41.561493999472916, -10.650114999860248 ], [ -41.562552000181313, -10.658680999994262 ], [ -41.565562999966154, -10.661801000222322 ] ] ] } },
{ "type": "Feature", "properties": { "NAME": "UM-06", "LAYER": "Unknown Area Type", "KML_STYLE": "style01020", "KML_FOLDER": "SPEs", "FID_1": 9, "SPE": "UMBURANAS 06", "CONTRATO": "MERCADO LIVRE", "HECTARES": 179.48, "Shape_Leng": 5643.5505107199997, "Shape_Area": 1794796.7135699999 }, "geometry": { "type": "Polygon", "coordinates": [ [ [ -41.602090000175295, -10.682633000110769 ], [ -41.608346999738984, -10.687885000359222 ], [ -41.614744999641061, -10.687830999699713 ], [ -41.614690999647195, -10.681503000246517 ], [ -41.609598999985998, -10.677859999765914 ], [ -41.608426999439097, -10.671716000400325 ], [ -41.60029800013217, -10.673232000291483 ], [ -41.602090000175295, -10.682633000110769 ] ] ] } },
{ "type": "Feature", "properties": { "NAME": "UM-16", "LAYER": "Unknown Area Type", "KML_STYLE": "style01610", "KML_FOLDER": "SPEs", "FID_1": 10, "SPE": "UMBURANAS 16", "CONTRATO": "MERCADO LIVRE", "HECTARES": 232.345, "Shape_Leng": 7410.4040298999998, "Shape_Area": 2323454.6430299999 }, "geometry": { "type": "Polygon", "coordinates": [ [ [ -41.573795999665784, -10.68961899954366 ], [ -41.567264999799761, -10.693918999669835 ], [ -41.569005000211803, -10.706328000032771 ], [ -41.580042999419547, -10.709463000101316 ], [ -41.576102999930562, -10.700487999579703 ], [ -41.585134999857729, -10.694540999597265 ], [ -41.583103000061179, -10.691522999925576 ], [ -41.573812999697694, -10.691598999711738 ], [ -41.573795999665784, -10.68961899954366 ] ] ] } },
{ "type": "Feature", "properties": { "NAME": "UM-05", "LAYER": "Unknown Area Type", "KML_STYLE": "style01710", "KML_FOLDER": "SPEs", "FID_1": 11, "SPE": "UMBURANAS 05", "CONTRATO": "MERCADO LIVRE", "HECTARES": 395.003, "Shape_Leng": 12188.2861555, "Shape_Area": 3950025.2268699999 }, "geometry": { "type": "Polygon", "coordinates": [ [ [ -41.565571999628588, -10.662953000160728 ], [ -41.565624999966886, -10.669224000214314 ], [ -41.573623999350247, -10.669158999964635 ], [ -41.573670000070273, -10.674619000283007 ], [ -41.599502999828658, -10.669064000288405 ], [ -41.60029800013217, -10.673232000291483 ], [ -41.608426999439097, -10.671716000400325 ], [ -41.607742999448554, -10.668129000431053 ], [ -41.607674999430245, -10.663904000023054 ], [ -41.591847000229059, -10.664035999739884 ], [ -41.5825569996762, -10.66411200014301 ], [ -41.572797999506335, -10.664193000264454 ], [ -41.572119999598229, -10.661398999994752 ], [ -41.565571999628588, -10.662953000160728 ] ] ] } },
{ "type": "Feature", "properties": { "NAME": "UM-08", "LAYER": "Unknown Area Type", "KML_STYLE": "style011710", "KML_FOLDER": "SPEs", "FID_1": 12, "SPE": "UMBURANAS 08", "CONTRATO": "MERCADO LIVRE", "HECTARES": 254.725, "Shape_Leng": 6840.4883180300003, "Shape_Area": 2547252.5893100002 }, "geometry": { "type": "Polygon", "coordinates": [ [ [ -41.585134999857729, -10.694540999597265 ], [ -41.576102999930562, -10.700487999579703 ], [ -41.580042999419547, -10.709463000101316 ], [ -41.596796000176525, -10.714220000362127 ], [ -41.589627999346945, -10.697890000122188 ], [ -41.587405000028255, -10.697912999648144 ], [ -41.585134999857729, -10.694540999597265 ] ] ] } },
{ "type": "Feature", "properties": { "NAME": "UM-21", "LAYER": "Unknown Area Type", "KML_STYLE": "style01220", "KML_FOLDER": "SPEs", "FID_1": 13, "SPE": "UMBURANAS 21", "CONTRATO": "A-5 2014", "HECTARES": 277.772, "Shape_Leng": 7854.6084829399997, "Shape_Area": 2777719.556 }, "geometry": { "type": "Polygon", "coordinates": [ [ [ -41.602913000127906, -10.723437000051803 ], [ -41.602912999871712, -10.72343899959354 ], [ -41.60855399983182, -10.72339200035084 ], [ -41.608503999967986, -10.717561000283013 ], [ -41.598248999887282, -10.697814000009304 ], [ -41.589627999346945, -10.697890000122188 ], [ -41.596796000176525, -10.714220000362127 ], [ -41.596805999889774, -10.714222999879382 ], [ -41.602913000127906, -10.723437000051803 ] ] ] } },
{ "type": "Feature", "properties": { "NAME": "UM-17", "LAYER": "Unknown Area Type", "KML_STYLE": "style011910", "KML_FOLDER": "SPEs", "FID_1": 14, "SPE": "UMBURANAS 17", "CONTRATO": "A-5 2014", "HECTARES": 213.128, "Shape_Leng": 6744.5091216199999, "Shape_Area": 2131278.2522800001 }, "geometry": { "type": "Polygon", "coordinates": [ [ [ -41.565740999617198, -10.683038999923811 ], [ -41.566144000017651, -10.68597300022898 ], [ -41.566150999607082, -10.685972000273638 ], [ -41.567264999799761, -10.693918999669835 ], [ -41.573795999665784, -10.68961899954366 ], [ -41.573670000070273, -10.674619000283007 ], [ -41.573623999350247, -10.669158999964635 ], [ -41.565624999966886, -10.669224000214314 ], [ -41.565740999617198, -10.683038999923811 ] ] ] } },
{ "type": "Feature", "properties": { "NAME": "UM-09", "LAYER": "Unknown Area Type", "KML_STYLE": "style011120", "KML_FOLDER": "SPEs", "FID_1": 15, "SPE": "UMBURANAS 09", "CONTRATO": "MERCADO LIVRE", "HECTARES": 391.124, "Shape_Leng": 11602.8500193, "Shape_Area": 3911234.7935600001 }, "geometry": { "type": "Polygon", "coordinates": [ [ [ -41.616942999538786, -10.63404699991022 ], [ -41.613011999808215, -10.638446999715557 ], [ -41.605110999952103, -10.636113000352967 ], [ -41.602706999700267, -10.638233000429265 ], [ -41.582340000052447, -10.638402000321047 ], [ -41.582431999469939, -10.649246999760367 ], [ -41.591720999525052, -10.649170999573588 ], [ -41.591700999763901, -10.646754999767998 ], [ -41.603704999770677, -10.646654999660482 ], [ -41.609725000162001, -10.640609000323051 ], [ -41.614454999959918, -10.644743999677239 ], [ -41.620852000019205, -10.644691000066796 ], [ -41.620798000020876, -10.638362999726068 ], [ -41.616942999538786, -10.63404699991022 ] ] ] } },
{ "type": "Feature", "properties": { "NAME": "UM-18", "LAYER": "Unknown Area Type", "KML_STYLE": "style011610", "KML_FOLDER": "SPEs", "FID_1": 16, "SPE": "UMBURANAS 18", "CONTRATO": "MERCADO LIVRE", "HECTARES": 167.328, "Shape_Leng": 5324.6010079300004, "Shape_Area": 1673282.8606499999 }, "geometry": { "type": "Polygon", "coordinates": [ [ [ -41.582431999469939, -10.649246999760367 ], [ -41.5825569996762, -10.66411200014301 ], [ -41.591847000229059, -10.664035999739884 ], [ -41.591720999525052, -10.649170999573588 ], [ -41.582431999469939, -10.649246999760367 ] ] ] } },
{ "type": "Feature", "properties": { "NAME": "UM-23", "LAYER": "Unknown Area Type", "KML_STYLE": "style011210", "KML_FOLDER": "SPEs", "FID_1": 17, "SPE": "UMBURANAS 23", "CONTRATO": "A-5 2014", "HECTARES": 243.384, "Shape_Leng": 6890.1085258399999, "Shape_Area": 2433842.1384100001 }, "geometry": { "type": "Polygon", "coordinates": [ [ [ -41.596979999988463, -10.625182999929946 ], [ -41.601031999742368, -10.629098000256457 ], [ -41.602629000070856, -10.629084999700511 ], [ -41.602668999681768, -10.633734000367786 ], [ -41.605110999952103, -10.636113000352967 ], [ -41.613011999808215, -10.638446999715557 ], [ -41.616942999538786, -10.63404699991022 ], [ -41.60332299968092, -10.618801999786552 ], [ -41.596927000212546, -10.618855000320215 ], [ -41.596979999988463, -10.625182999929946 ] ] ] } }
]
}
