{
"type": "FeatureCollection",
"name": "aerogerador",
"crs": { "type": "name", "properties": { "name": "urn:ogc:def:crs:OGC:1.3:CRS84" } },
"features": [
{ "type": "Feature", "properties": { "NAME": "UMB_01_01", "LAYER": "Unknown Point Feature", "FID_1": 0, "TURBINE": "UMB_01_01", "E": 224260, "N": 8818336, "Z": 1071, "MUNICIPIO": "SENTO SÉ", "SPE": "UMB-01", "FRENTE": "FR-01", "LI": "SIM", "LON": "41° 31' 14.27\" W", "LAT": "10° 40' 46.12\" S", "KML_STYLE": 803765712, "ELEVATION": 1071, "POINT_X": 224259.96678799999, "POINT_Y": 8818336.0356099997 }, "geometry": { "type": "Point", "coordinates": [ -41.520630999708445, -10.679477000057684 ] } },
{ "type": "Feature", "properties": { "NAME": "UMB_01_02", "LAYER": "Unknown Point Feature", "FID_1": 1, "TURBINE": "UMB_01_02", "E": 224456, "N": 8818480, "Z": 1067, "MUNICIPIO": "SENTO SÉ", "SPE": "UMB-01", "FRENTE": "FR-01", "LI": "SIM", "LON": null, "LAT": null, "KML_STYLE": 803765712, "ELEVATION": 1067, "POINT_X": 224456.052474, "POINT_Y": 8818479.9637400005 }, "geometry": { "type": "Point", "coordinates": [ -41.518828999580698, -10.678191000369141 ] } },
{ "type": "Feature", "properties": { "NAME": "UMB_01_03", "LAYER": "Unknown Point Feature", "FID_1": 2, "TURBINE": "UMB_01_03", "E": 224611, "N": 8818639, "Z": 1061, "MUNICIPIO": "SENTO SÉ", "SPE": "UMB-01", "FRENTE": "FR-01", "LI": "SIM", "LON": null, "LAT": null, "KML_STYLE": 803765712, "ELEVATION": 1061, "POINT_X": 224610.96596, "POINT_Y": 8818639.0495699998 }, "geometry": { "type": "Point", "coordinates": [ -41.517401999447713, -10.676764999759722 ] } },
{ "type": "Feature", "properties": { "NAME": "UMB_01_04", "LAYER": "Unknown Point Feature", "FID_1": 3, "TURBINE": "UMB_01_04", "E": 224782, "N": 8818798, "Z": 1060, "MUNICIPIO": "SENTO SÉ", "SPE": "UMB-01", "FRENTE": "FR-01", "LI": null, "LON": null, "LAT": null, "KML_STYLE": 803765712, "ELEVATION": 1060, "POINT_X": 224781.97342299999, "POINT_Y": 8818798.0439800005 }, "geometry": { "type": "Point", "coordinates": [ -41.515828000029579, -10.675340999824646 ] } },
{ "type": "Feature", "properties": { "NAME": "UMB_01_05", "LAYER": "Unknown Point Feature", "FID_1": 4, "TURBINE": "UMB_01_05", "E": 224974, "N": 8818935, "Z": 1070, "MUNICIPIO": "SENTO SÉ", "SPE": "UMB-01", "FRENTE": "FR-01", "LI": null, "LON": null, "LAT": null, "KML_STYLE": 803765712, "ELEVATION": 1070, "POINT_X": 224973.96095499999, "POINT_Y": 8818934.9620099999 }, "geometry": { "type": "Point", "coordinates": [ -41.514063999407412, -10.674118000117582 ] } },
{ "type": "Feature", "properties": { "NAME": "UMB_01_06", "LAYER": "Unknown Point Feature", "FID_1": 5, "TURBINE": "UMB_01_06", "E": 225179, "N": 8819066, "Z": 1063, "MUNICIPIO": "UMBURANAS", "SPE": "UMB-01", "FRENTE": "FR-01", "LI": null, "LON": null, "LAT": null, "KML_STYLE": 803765712, "ELEVATION": 1063, "POINT_X": 225179.02435399999, "POINT_Y": 8819066.0083700009 }, "geometry": { "type": "Point", "coordinates": [ -41.512180999398275, -10.672948999727542 ] } },
{ "type": "Feature", "properties": { "NAME": "UMB_01_07", "LAYER": "Unknown Point Feature", "FID_1": 6, "TURBINE": "UMB_01_07", "E": 225343, "N": 8819225, "Z": 1057, "MUNICIPIO": "UMBURANAS", "SPE": "UMB-01", "FRENTE": "FR-01", "LI": null, "LON": null, "LAT": null, "KML_STYLE": 803765712, "ELEVATION": 1057, "POINT_X": 225343.03001399999, "POINT_Y": 8819225.0525400005 }, "geometry": { "type": "Point", "coordinates": [ -41.510670999957881, -10.671524000397419 ] } },
{ "type": "Feature", "properties": { "NAME": "UMB_01_08", "LAYER": "Unknown Point Feature", "FID_1": 7, "TURBINE": "UMB_01_08", "E": 224279, "N": 8820095, "Z": 1012, "MUNICIPIO": "SENTO SÉ", "SPE": "UMB-01", "FRENTE": "FR-01", "LI": null, "LON": null, "LAT": null, "KML_STYLE": 803765712, "ELEVATION": 1012, "POINT_X": 224279.016435, "POINT_Y": 8820095.0516800005 }, "geometry": { "type": "Point", "coordinates": [ -41.520326000132201, -10.663584999768117 ] } },
{ "type": "Feature", "properties": { "NAME": "UMB_01_09", "LAYER": "Unknown Point Feature", "FID_1": 8, "TURBINE": "UMB_01_09", "E": 224387, "N": 8820297, "Z": 1035, "MUNICIPIO": "SENTO SÉ", "SPE": "UMB-01", "FRENTE": "FR-01", "LI": "SIM", "LON": null, "LAT": null, "KML_STYLE": 803765712, "ELEVATION": 1035, "POINT_X": 224386.95396499999, "POINT_Y": 8820297.0284000002 }, "geometry": { "type": "Point", "coordinates": [ -41.519324999499858, -10.661768000000677 ] } },
{ "type": "Feature", "properties": { "NAME": "UMB_01_10", "LAYER": "Unknown Point Feature", "FID_1": 9, "TURBINE": "UMB_01_10", "E": 224502, "N": 8820513, "Z": 1044, "MUNICIPIO": "SENTO SÉ", "SPE": "UMB-01", "FRENTE": "FR-01", "LI": "SIM", "LON": null, "LAT": null, "KML_STYLE": 803765712, "ELEVATION": 1044, "POINT_X": 224502.00432899999, "POINT_Y": 8820513.0074400008 }, "geometry": { "type": "Point", "coordinates": [ -41.518258000089794, -10.659825000362725 ] } },
{ "type": "Feature", "properties": { "NAME": "UMB_02_01", "LAYER": "Unknown Point Feature", "FID_1": 10, "TURBINE": "UMB_02_01", "E": 225469, "N": 8819404, "Z": 1052, "MUNICIPIO": "UMBURANAS", "SPE": "UMB-02", "FRENTE": "FR-01", "LI": null, "LON": "41° 30' 34.23\" W", "LAT": "10° 40' 11.70\" S", "KML_STYLE": 803765712, "ELEVATION": 1052, "POINT_X": 225468.99903599999, "POINT_Y": 8819404.0404100008 }, "geometry": { "type": "Point", "coordinates": [ -41.509507000150904, -10.669916000100336 ] } },
{ "type": "Feature", "properties": { "NAME": "UMB_02_02", "LAYER": "Unknown Point Feature", "FID_1": 11, "TURBINE": "UMB_02_02", "E": 225568, "N": 8819588, "Z": 1031, "MUNICIPIO": "UMBURANAS", "SPE": "UMB-02", "FRENTE": "FR-01", "LI": null, "LON": null, "LAT": null, "KML_STYLE": 803765712, "ELEVATION": 1031, "POINT_X": 225567.999545, "POINT_Y": 8819588.0104699992 }, "geometry": { "type": "Point", "coordinates": [ -41.508589000229691, -10.668260999743055 ] } },
{ "type": "Feature", "properties": { "NAME": "UMB_02_03", "LAYER": "Unknown Point Feature", "FID_1": 12, "TURBINE": "UMB_02_03", "E": 225702, "N": 8819749, "Z": 1030, "MUNICIPIO": "UMBURANAS", "SPE": "UMB-02", "FRENTE": "FR-01", "LI": null, "LON": null, "LAT": null, "KML_STYLE": 803765712, "ELEVATION": 1030, "POINT_X": 225701.998926, "POINT_Y": 8819749.0219700001 }, "geometry": { "type": "Point", "coordinates": [ -41.507353000062608, -10.666815999738105 ] } },
{ "type": "Feature", "properties": { "NAME": "UMB_02_04", "LAYER": "Unknown Point Feature", "FID_1": 13, "TURBINE": "UMB_02_04", "E": 225831, "N": 8819918, "Z": 1018, "MUNICIPIO": "UMBURANAS", "SPE": "UMB-02", "FRENTE": "FR-01", "LI": null, "LON": null, "LAT": null, "KML_STYLE": 803765712, "ELEVATION": 1018, "POINT_X": 225831.009246, "POINT_Y": 8819917.9607800003 }, "geometry": { "type": "Point", "coordinates": [ -41.506162000246356, -10.665298999813137 ] } },
{ "type": "Feature", "properties": { "NAME": "UMB_02_05", "LAYER": "Unknown Point Feature", "FID_1": 14, "TURBINE": "UMB_02_05", "E": 225951, "N": 8820101, "Z": 999, "MUNICIPIO": "UMBURANAS", "SPE": "UMB-02", "FRENTE": "FR-01", "LI": null, "LON": null, "LAT": null, "KML_STYLE": 803765712, "ELEVATION": 999, "POINT_X": 225951.03969100001, "POINT_Y": 8820100.9924100004 }, "geometry": { "type": "Point", "coordinates": [ -41.505051999745831, -10.663654000104787 ] } },
{ "type": "Feature", "properties": { "NAME": "UMB_02_06", "LAYER": "Unknown Point Feature", "FID_1": 15, "TURBINE": "UMB_02_06", "E": 226081, "N": 8820281, "Z": 1016, "MUNICIPIO": "UMBURANAS", "SPE": "UMB-02", "FRENTE": "FR-01", "LI": null, "LON": null, "LAT": null, "KML_STYLE": 803765712, "ELEVATION": 1016, "POINT_X": 226080.94844199999, "POINT_Y": 8820281.0043299999 }, "geometry": { "type": "Point", "coordinates": [ -41.503852000212113, -10.662037000258609 ] } },
{ "type": "Feature", "properties": { "NAME": "UMB_02_07", "LAYER": "Unknown Point Feature", "FID_1": 16, "TURBINE": "UMB_02_07", "E": 226310, "N": 8820434, "Z": 995, "MUNICIPIO": "UMBURANAS", "SPE": "UMB-02", "FRENTE": "FR-01", "LI": null, "LON": null, "LAT": null, "KML_STYLE": 803765712, "ELEVATION": 995, "POINT_X": 226310.03943199999, "POINT_Y": 8820434.0379700009 }, "geometry": { "type": "Point", "coordinates": [ -41.501748000117246, -10.66067099967805 ] } },
{ "type": "Feature", "properties": { "NAME": "UMB_02_08", "LAYER": "Unknown Point Feature", "FID_1": 17, "TURBINE": "UMB_02_08", "E": 226455, "N": 8820594, "Z": 1015, "MUNICIPIO": "UMBURANAS", "SPE": "UMB-02", "FRENTE": "FR-01", "LI": null, "LON": null, "LAT": null, "KML_STYLE": 803765712, "ELEVATION": 1015, "POINT_X": 226455.00142799999, "POINT_Y": 8820594.0266299993 }, "geometry": { "type": "Point", "coordinates": [ -41.500412000083735, -10.659236000232863 ] } },
{ "type": "Feature", "properties": { "NAME": "UMB_02_09", "LAYER": "Unknown Point Feature", "FID_1": 18, "TURBINE": "UMB_02_09", "E": 226646, "N": 8820859, "Z": 997, "MUNICIPIO": "SENTO SÉ", "SPE": "UMB-02", "FRENTE": "FR-01", "LI": null, "LON": null, "LAT": null, "KML_STYLE": 803765712, "ELEVATION": 997, "POINT_X": 226645.972102, "POINT_Y": 8820858.9725100007 }, "geometry": { "type": "Point", "coordinates": [ -41.498647999843513, -10.656856000094958 ] } },
{ "type": "Feature", "properties": { "NAME": "UMB_02_10", "LAYER": "Unknown Point Feature", "FID_1": 19, "TURBINE": "UMB_02_10", "E": 226762, "N": 8821070, "Z": 988, "MUNICIPIO": "SENTO SÉ", "SPE": "UMB-02", "FRENTE": "FR-01", "LI": null, "LON": null, "LAT": null, "KML_STYLE": 803765712, "ELEVATION": 988, "POINT_X": 226761.95370899999, "POINT_Y": 8821069.9671299998 }, "geometry": { "type": "Point", "coordinates": [ -41.497572999908748, -10.654958000303226 ] } },
{ "type": "Feature", "properties": { "NAME": "UMB_03_01", "LAYER": "Unknown Point Feature", "FID_1": 20, "TURBINE": "UMB_03_01", "E": 225653, "N": 8822689, "Z": 1040, "MUNICIPIO": "SENTO SÉ", "SPE": "UMB-03", "FRENTE": "FR-01", "LI": null, "LON": "41° 30' 27.30\" W", "LAT": "10° 38' 24.89\" S", "KML_STYLE": 803765712, "ELEVATION": 1040, "POINT_X": 225653.01792300001, "POINT_Y": 8822689.0288399998 }, "geometry": { "type": "Point", "coordinates": [ -41.507583000032234, -10.6402480003562 ] } },
{ "type": "Feature", "properties": { "NAME": "UMB_03_02", "LAYER": "Unknown Point Feature", "FID_1": 21, "TURBINE": "UMB_03_02", "E": 225762, "N": 8822913, "Z": 1028, "MUNICIPIO": "SENTO SÉ", "SPE": "UMB-03", "FRENTE": "FR-01", "LI": null, "LON": null, "LAT": null, "KML_STYLE": 803765712, "ELEVATION": 1028, "POINT_X": 225762.00088000001, "POINT_Y": 8822913.0296100006 }, "geometry": { "type": "Point", "coordinates": [ -41.506570999638754, -10.638232000099416 ] } },
{ "type": "Feature", "properties": { "NAME": "UMB_03_03", "LAYER": "Unknown Point Feature", "FID_1": 22, "TURBINE": "UMB_03_03", "E": 225845, "N": 8823130, "Z": 1020, "MUNICIPIO": "SENTO SÉ", "SPE": "UMB-03", "FRENTE": "FR-01", "LI": null, "LON": null, "LAT": null, "KML_STYLE": 803765712, "ELEVATION": 1020, "POINT_X": 225844.986213, "POINT_Y": 8823129.9578699991 }, "geometry": { "type": "Point", "coordinates": [ -41.505796999938937, -10.636277999680594 ] } },
{ "type": "Feature", "properties": { "NAME": "UMB_03_04", "LAYER": "Unknown Point Feature", "FID_1": 23, "TURBINE": "UMB_03_04", "E": 226142, "N": 8823267, "Z": 1012, "MUNICIPIO": "SENTO SÉ", "SPE": "UMB-03", "FRENTE": "FR-01", "LI": null, "LON": null, "LAT": null, "KML_STYLE": 803765712, "ELEVATION": 1012, "POINT_X": 226141.9964, "POINT_Y": 8823267.0460700002 }, "geometry": { "type": "Point", "coordinates": [ -41.503073999825823, -10.635060999683496 ] } },
{ "type": "Feature", "properties": { "NAME": "UMB_03_05", "LAYER": "Unknown Point Feature", "FID_1": 24, "TURBINE": "UMB_03_05", "E": 226221, "N": 8823474, "Z": 1003, "MUNICIPIO": "UMBURANAS", "SPE": "UMB-03", "FRENTE": "FR-01", "LI": null, "LON": null, "LAT": null, "KML_STYLE": 803765712, "ELEVATION": 1003, "POINT_X": 226221.01511499999, "POINT_Y": 8823473.9799099993 }, "geometry": { "type": "Point", "coordinates": [ -41.50233699995902, -10.633197000090048 ] } },
{ "type": "Feature", "properties": { "NAME": "UMB_03_06", "LAYER": "Unknown Point Feature", "FID_1": 25, "TURBINE": "UMB_03_06", "E": 226822, "N": 8822673, "Z": 995, "MUNICIPIO": "UMBURANAS", "SPE": "UMB-03", "FRENTE": "FR-01", "LI": null, "LON": null, "LAT": null, "KML_STYLE": 803765712, "ELEVATION": 995, "POINT_X": 226821.94686900001, "POINT_Y": 8822673.0059699994 }, "geometry": { "type": "Point", "coordinates": [ -41.496906999546113, -10.640477999681977 ] } },
{ "type": "Feature", "properties": { "NAME": "UMB_03_07", "LAYER": "Unknown Point Feature", "FID_1": 26, "TURBINE": "UMB_03_07", "E": 226798, "N": 8822446, "Z": 1031, "MUNICIPIO": "UMBURANAS", "SPE": "UMB-03", "FRENTE": "FR-01", "LI": null, "LON": null, "LAT": null, "KML_STYLE": 803765712, "ELEVATION": 1031, "POINT_X": 226798.047207, "POINT_Y": 8822446.0431900006 }, "geometry": { "type": "Point", "coordinates": [ -41.497141999895533, -10.642526999870652 ] } },
{ "type": "Feature", "properties": { "NAME": "UMB_03_08", "LAYER": "Unknown Point Feature", "FID_1": 27, "TURBINE": "UMB_03_08", "E": 226681, "N": 8822136, "Z": 1046, "MUNICIPIO": "UMBURANAS", "SPE": "UMB-03", "FRENTE": "FR-01", "LI": null, "LON": null, "LAT": null, "KML_STYLE": 803765712, "ELEVATION": 1046, "POINT_X": 226680.99587099999, "POINT_Y": 8822135.9883900005 }, "geometry": { "type": "Point", "coordinates": [ -41.498233999565514, -10.645319999875317 ] } },
{ "type": "Feature", "properties": { "NAME": "UMB_05_01", "LAYER": "Unknown Point Feature", "FID_1": 28, "TURBINE": "UMB_05_01", "E": 215064, "N": 8819863, "Z": 995, "MUNICIPIO": "SENTO SÉ", "SPE": "UMB-05", "FRENTE": "FR-03", "LI": null, "LON": "41° 36' 16.26\" W", "LAT": "10° 39' 53.97\" S", "KML_STYLE": 803765712, "ELEVATION": 995, "POINT_X": 215063.95524400001, "POINT_Y": 8819863.0088400003 }, "geometry": { "type": "Point", "coordinates": [ -41.604518000176483, -10.664992000373632 ] } },
{ "type": "Feature", "properties": { "NAME": "UMB_05_02", "LAYER": "Unknown Point Feature", "FID_1": 29, "TURBINE": "UMB_05_02", "E": 215119, "N": 8819597, "Z": 1011, "MUNICIPIO": "SENTO SÉ", "SPE": "UMB-05", "FRENTE": "FR-03", "LI": null, "LON": null, "LAT": null, "KML_STYLE": 803765712, "ELEVATION": 1011, "POINT_X": 215118.96387000001, "POINT_Y": 8819596.9470099993 }, "geometry": { "type": "Point", "coordinates": [ -41.604035999501399, -10.667400000054773 ] } },
{ "type": "Feature", "properties": { "NAME": "UMB_05_03", "LAYER": "Unknown Point Feature", "FID_1": 30, "TURBINE": "UMB_05_03", "E": 215121, "N": 8819358, "Z": 1027, "MUNICIPIO": "SENTO SÉ", "SPE": "UMB-05", "FRENTE": "FR-03", "LI": null, "LON": null, "LAT": null, "KML_STYLE": 803765712, "ELEVATION": 1027, "POINT_X": 215120.97574, "POINT_Y": 8819357.9991200007 }, "geometry": { "type": "Point", "coordinates": [ -41.604036000138798, -10.669559000129137 ] } },
{ "type": "Feature", "properties": { "NAME": "UMB_05_04", "LAYER": "Unknown Point Feature", "FID_1": 31, "TURBINE": "UMB_05_04", "E": 215108, "N": 8819130, "Z": 1044, "MUNICIPIO": "SENTO SÉ", "SPE": "UMB-05", "FRENTE": "FR-03", "LI": null, "LON": null, "LAT": null, "KML_STYLE": 803765712, "ELEVATION": 1044, "POINT_X": 215108.00701900001, "POINT_Y": 8819129.9933400005 }, "geometry": { "type": "Point", "coordinates": [ -41.604171999945656, -10.671618000314641 ] } },
{ "type": "Feature", "properties": { "NAME": "UMB_05_05", "LAYER": "Unknown Point Feature", "FID_1": 32, "TURBINE": "UMB_05_05", "E": 218890, "N": 8820115, "Z": 1045, "MUNICIPIO": "SENTO SÉ", "SPE": "UMB-05", "FRENTE": "FR-03", "LI": null, "LON": null, "LAT": null, "KML_STYLE": 803765712, "ELEVATION": 1045, "POINT_X": 218889.96457800001, "POINT_Y": 8820115.0337799992 }, "geometry": { "type": "Point", "coordinates": [ -41.56955099959314, -10.663003999845142 ] } },
{ "type": "Feature", "properties": { "NAME": "UMB_05_06", "LAYER": "Unknown Point Feature", "FID_1": 33, "TURBINE": "UMB_05_06", "E": 218870, "N": 8819868, "Z": 1046, "MUNICIPIO": "SENTO SÉ", "SPE": "UMB-05", "FRENTE": "FR-03", "LI": "SIM", "LON": null, "LAT": null, "KML_STYLE": 803765712, "ELEVATION": 1046, "POINT_X": 218870.01100699999, "POINT_Y": 8819868.0515400004 }, "geometry": { "type": "Point", "coordinates": [ -41.569751999857829, -10.665234000357016 ] } },
{ "type": "Feature", "properties": { "NAME": "UMB_05_07", "LAYER": "Unknown Point Feature", "FID_1": 34, "TURBINE": "UMB_05_07", "E": 218866, "N": 8819611, "Z": 1050, "MUNICIPIO": "SENTO SÉ", "SPE": "UMB-05", "FRENTE": "FR-03", "LI": "SIM", "LON": null, "LAT": null, "KML_STYLE": 803765712, "ELEVATION": 1050, "POINT_X": 218866.01558599999, "POINT_Y": 8819611.0191900004 }, "geometry": { "type": "Point", "coordinates": [ -41.569807999666537, -10.667555999927846 ] } },
{ "type": "Feature", "properties": { "NAME": "UMB_06_01", "LAYER": "Unknown Point Feature", "FID_1": 35, "TURBINE": "UMB_06_01", "E": 215047, "N": 8818927, "Z": 1051, "MUNICIPIO": "SENTO SÉ", "SPE": "UMB-06", "FRENTE": "FR-03", "LI": null, "LON": "41° 36' 17.08\" W", "LAT": "10° 40' 24.41\" S", "KML_STYLE": 803765712, "ELEVATION": 1051, "POINT_X": 215046.98674299999, "POINT_Y": 8818927.0397599991 }, "geometry": { "type": "Point", "coordinates": [ -41.604745000160072, -10.673446999641405 ] } },
{ "type": "Feature", "properties": { "NAME": "UMB_06_02", "LAYER": "Unknown Point Feature", "FID_1": 36, "TURBINE": "UMB_06_02", "E": 214976, "N": 8818740, "Z": 1036, "MUNICIPIO": "SENTO SÉ", "SPE": "UMB-06", "FRENTE": "FR-03", "LI": null, "LON": null, "LAT": null, "KML_STYLE": 803765712, "ELEVATION": 1036, "POINT_X": 214975.980109, "POINT_Y": 8818740.0507699996 }, "geometry": { "type": "Point", "coordinates": [ -41.605407999850776, -10.675130999699805 ] } },
{ "type": "Feature", "properties": { "NAME": "UMB_06_03", "LAYER": "Unknown Point Feature", "FID_1": 37, "TURBINE": "UMB_06_03", "E": 214961, "N": 8818521, "Z": 995, "MUNICIPIO": "SENTO SÉ", "SPE": "UMB-06", "FRENTE": "FR-03", "LI": null, "LON": null, "LAT": null, "KML_STYLE": 803765712, "ELEVATION": 995, "POINT_X": 214960.96765800001, "POINT_Y": 8818520.9926600009 }, "geometry": { "type": "Point", "coordinates": [ -41.605561999383546, -10.677108999628686 ] } },
{ "type": "Feature", "properties": { "NAME": "UMB_06_04", "LAYER": "Unknown Point Feature", "FID_1": 38, "TURBINE": "UMB_06_04", "E": 214996, "N": 8818263, "Z": 979, "MUNICIPIO": "SENTO SÉ", "SPE": "UMB-06", "FRENTE": "FR-03", "LI": "SIM", "LON": null, "LAT": null, "KML_STYLE": 803765712, "ELEVATION": 979, "POINT_X": 214995.98573799999, "POINT_Y": 8818262.9531100001 }, "geometry": { "type": "Point", "coordinates": [ -41.605262000123545, -10.67944300003608 ] } },
{ "type": "Feature", "properties": { "NAME": "UMB_06_05", "LAYER": "Unknown Point Feature", "FID_1": 39, "TURBINE": "UMB_06_05", "E": 214870, "N": 8818084, "Z": 972, "MUNICIPIO": "SENTO SÉ", "SPE": "UMB-06", "FRENTE": "FR-03", "LI": null, "LON": null, "LAT": null, "KML_STYLE": 803765712, "ELEVATION": 972, "POINT_X": 214869.95799200001, "POINT_Y": 8818084.0219500009 }, "geometry": { "type": "Point", "coordinates": [ -41.606426999701135, -10.681050000430604 ] } },
{ "type": "Feature", "properties": { "NAME": "UMB_06_06", "LAYER": "Unknown Point Feature", "FID_1": 40, "TURBINE": "UMB_06_06", "E": 214655, "N": 8817947, "Z": 984, "MUNICIPIO": "SENTO SÉ", "SPE": "UMB-06", "FRENTE": "FR-03", "LI": "SIM", "LON": null, "LAT": null, "KML_STYLE": 803765712, "ELEVATION": 984, "POINT_X": 214655.014421, "POINT_Y": 8817946.9523900002 }, "geometry": { "type": "Point", "coordinates": [ -41.608400999965156, -10.68227199987304 ] } },
{ "type": "Feature", "properties": { "NAME": "UMB_06_07", "LAYER": "Unknown Point Feature", "FID_1": 41, "TURBINE": "UMB_06_07", "E": 214477, "N": 8817818, "Z": 987, "MUNICIPIO": "SENTO SÉ", "SPE": "UMB-06", "FRENTE": "FR-03", "LI": "SIM", "LON": null, "LAT": null, "KML_STYLE": 803765712, "ELEVATION": 987, "POINT_X": 214477.00523000001, "POINT_Y": 8817818.0517100003 }, "geometry": { "type": "Point", "coordinates": [ -41.610037000044969, -10.683423000119625 ] } },
{ "type": "Feature", "properties": { "NAME": "UMB_06_08", "LAYER": "Unknown Point Feature", "FID_1": 42, "TURBINE": "UMB_06_08", "E": 214316, "N": 8817676, "Z": 990, "MUNICIPIO": "SENTO SÉ", "SPE": "UMB-06", "FRENTE": "FR-03", "LI": "SIM", "LON": null, "LAT": null, "KML_STYLE": 803765712, "ELEVATION": 990, "POINT_X": 214315.96720099999, "POINT_Y": 8817676.0112200007 }, "geometry": { "type": "Point", "coordinates": [ -41.611518999780152, -10.684694000137478 ] } },
{ "type": "Feature", "properties": { "NAME": "UMB_08_01", "LAYER": "Unknown Point Feature", "FID_1": 43, "TURBINE": "UMB_08_01", "E": 217524, "N": 8816261, "Z": 938, "MUNICIPIO": "SENTO SÉ", "SPE": "UMB-08", "FRENTE": "FR-02", "LI": "SIM", "LON": "41° 34' 56.36\" W", "LAT": "10° 41' 51.80\" S", "KML_STYLE": 803765712, "ELEVATION": 938, "POINT_X": 217524.04266599999, "POINT_Y": 8816261.0315799993 }, "geometry": { "type": "Point", "coordinates": [ -41.582321999472519, -10.697721999809424 ] } },
{ "type": "Feature", "properties": { "NAME": "UMB_08_02", "LAYER": "Unknown Point Feature", "FID_1": 44, "TURBINE": "UMB_08_02", "E": 217406, "N": 8816082, "Z": 933, "MUNICIPIO": "SENTO SÉ", "SPE": "UMB-08", "FRENTE": "FR-02", "LI": "SIM", "LON": null, "LAT": null, "KML_STYLE": 803765712, "ELEVATION": 933, "POINT_X": 217406.00625499999, "POINT_Y": 8816081.9566300008 }, "geometry": { "type": "Point", "coordinates": [ -41.583413999373036, -10.699331000274457 ] } },
{ "type": "Feature", "properties": { "NAME": "UMB_08_03", "LAYER": "Unknown Point Feature", "FID_1": 45, "TURBINE": "UMB_08_03", "E": 217318, "N": 8815885, "Z": 930, "MUNICIPIO": "SENTO SÉ", "SPE": "UMB-08", "FRENTE": "FR-02", "LI": "SIM", "LON": null, "LAT": null, "KML_STYLE": 803765712, "ELEVATION": 930, "POINT_X": 217318.005064, "POINT_Y": 8815884.9808900002 }, "geometry": { "type": "Point", "coordinates": [ -41.584232999456631, -10.701103999928641 ] } },
{ "type": "Feature", "properties": { "NAME": "UMB_08_04", "LAYER": "Unknown Point Feature", "FID_1": 46, "TURBINE": "UMB_08_04", "E": 217308, "N": 8815652, "Z": 925, "MUNICIPIO": "SENTO SÉ", "SPE": "UMB-08", "FRENTE": "FR-02", "LI": "SIM", "LON": null, "LAT": null, "KML_STYLE": 803765712, "ELEVATION": 925, "POINT_X": 217308.02609100001, "POINT_Y": 8815652.0231500007 }, "geometry": { "type": "Point", "coordinates": [ -41.584341999703234, -10.70320799954432 ] } },
{ "type": "Feature", "properties": { "NAME": "UMB_08_05", "LAYER": "Unknown Point Feature", "FID_1": 47, "TURBINE": "UMB_08_05", "E": 217271, "N": 8815420, "Z": 925, "MUNICIPIO": "SENTO SÉ", "SPE": "UMB-08", "FRENTE": "FR-02", "LI": "SIM", "LON": null, "LAT": null, "KML_STYLE": 803765712, "ELEVATION": 925, "POINT_X": 217271.00292900001, "POINT_Y": 8815419.9453800004 }, "geometry": { "type": "Point", "coordinates": [ -41.584698000053059, -10.705301999831498 ] } },
{ "type": "Feature", "properties": { "NAME": "UMB_08_06", "LAYER": "Unknown Point Feature", "FID_1": 48, "TURBINE": "UMB_08_06", "E": 217147, "N": 8815227, "Z": 930, "MUNICIPIO": "SENTO SÉ", "SPE": "UMB-08", "FRENTE": "FR-02", "LI": "SIM", "LON": null, "LAT": null, "KML_STYLE": 803765712, "ELEVATION": 930, "POINT_X": 217146.95832100001, "POINT_Y": 8815226.9827699997 }, "geometry": { "type": "Point", "coordinates": [ -41.585845999974794, -10.707035999764356 ] } },
{ "type": "Feature", "properties": { "NAME": "UMB_08_07", "LAYER": "Unknown Point Feature", "FID_1": 49, "TURBINE": "UMB_08_07", "E": 217085, "N": 8815035, "Z": 932, "MUNICIPIO": "SENTO SÉ", "SPE": "UMB-08", "FRENTE": "FR-02", "LI": "SIM", "LON": null, "LAT": null, "KML_STYLE": 803765712, "ELEVATION": 932, "POINT_X": 217084.972113, "POINT_Y": 8815034.9830399994 }, "geometry": { "type": "Point", "coordinates": [ -41.586426999910422, -10.708766000340699 ] } },
{ "type": "Feature", "properties": { "NAME": "UMB_08_08", "LAYER": "Unknown Point Feature", "FID_1": 50, "TURBINE": "UMB_08_08", "E": 216935, "N": 8814891, "Z": 927, "MUNICIPIO": "SENTO SÉ", "SPE": "UMB-08", "FRENTE": "FR-02", "LI": null, "LON": null, "LAT": null, "KML_STYLE": 803765712, "ELEVATION": 927, "POINT_X": 216935.013993, "POINT_Y": 8814891.0549199991 }, "geometry": { "type": "Point", "coordinates": [ -41.587807999722017, -10.710055000145793 ] } },
{ "type": "Feature", "properties": { "NAME": "UMB_08_09", "LAYER": "Unknown Point Feature", "FID_1": 51, "TURBINE": "UMB_08_09", "E": 216743, "N": 8814777, "Z": 924, "MUNICIPIO": "SENTO SÉ", "SPE": "UMB-08", "FRENTE": "FR-02", "LI": null, "LON": null, "LAT": null, "KML_STYLE": 803765712, "ELEVATION": 924, "POINT_X": 216742.991932, "POINT_Y": 8814776.9884600006 }, "geometry": { "type": "Point", "coordinates": [ -41.589571000071899, -10.711070999615449 ] } },
{ "type": "Feature", "properties": { "NAME": "UMB_08_10", "LAYER": "Unknown Point Feature", "FID_1": 52, "TURBINE": "UMB_08_10", "E": 216545, "N": 8814659, "Z": 911, "MUNICIPIO": "SENTO SÉ", "SPE": "UMB-08", "FRENTE": "FR-02", "LI": null, "LON": null, "LAT": null, "KML_STYLE": 803765712, "ELEVATION": 911, "POINT_X": 216544.98365000001, "POINT_Y": 8814658.9963399991 }, "geometry": { "type": "Point", "coordinates": [ -41.591388999332018, -10.712122000393338 ] } },
{ "type": "Feature", "properties": { "NAME": "UMB_09_01", "LAYER": "Unknown Point Feature", "FID_1": 53, "TURBINE": "UMB_09_01", "E": 213964, "N": 8822770, "Z": 976, "MUNICIPIO": "SENTO SÉ", "SPE": "UMB-09", "FRENTE": "FR-03", "LI": null, "LON": "41° 36' 51.63\" W", "LAT": "10° 38' 19.12\" S", "KML_STYLE": 803765712, "ELEVATION": 976, "POINT_X": 213964.00197899999, "POINT_Y": 8822770.0307100005 }, "geometry": { "type": "Point", "coordinates": [ -41.61434099957858, -10.638644000101827 ] } },
{ "type": "Feature", "properties": { "NAME": "UMB_09_02", "LAYER": "Unknown Point Feature", "FID_1": 54, "TURBINE": "UMB_09_02", "E": 213786, "N": 8822620, "Z": 965, "MUNICIPIO": "SENTO SÉ", "SPE": "UMB-09", "FRENTE": "FR-03", "LI": null, "LON": null, "LAT": null, "KML_STYLE": 803765712, "ELEVATION": 965, "POINT_X": 213786.033333, "POINT_Y": 8822619.9921499994 }, "geometry": { "type": "Point", "coordinates": [ -41.615978000068296, -10.639986000419194 ] } },
{ "type": "Feature", "properties": { "NAME": "UMB_09_03", "LAYER": "Unknown Point Feature", "FID_1": 55, "TURBINE": "UMB_09_03", "E": 213607, "N": 8822445, "Z": 961, "MUNICIPIO": "SENTO SÉ", "SPE": "UMB-09", "FRENTE": "FR-03", "LI": "SIM", "LON": null, "LAT": null, "KML_STYLE": 803765712, "ELEVATION": 961, "POINT_X": 213606.96266200001, "POINT_Y": 8822445.03902 }, "geometry": { "type": "Point", "coordinates": [ -41.617626999415506, -10.641553000140073 ] } },
{ "type": "Feature", "properties": { "NAME": "UMB_09_04", "LAYER": "Unknown Point Feature", "FID_1": 56, "TURBINE": "UMB_09_04", "E": 217109, "N": 8822476, "Z": 1056, "MUNICIPIO": "SENTO SÉ", "SPE": "UMB-09", "FRENTE": "FR-03", "LI": "SIM", "LON": null, "LAT": null, "KML_STYLE": 803765712, "ELEVATION": 1056, "POINT_X": 217108.981898, "POINT_Y": 8822475.97377 }, "geometry": { "type": "Point", "coordinates": [ -41.585638999760462, -10.641538999708507 ] } },
{ "type": "Feature", "properties": { "NAME": "UMB_09_05", "LAYER": "Unknown Point Feature", "FID_1": 57, "TURBINE": "UMB_09_05", "E": 217092, "N": 8822239, "Z": 1052, "MUNICIPIO": "SENTO SÉ", "SPE": "UMB-09", "FRENTE": "FR-03", "LI": null, "LON": null, "LAT": null, "KML_STYLE": 803765712, "ELEVATION": 1052, "POINT_X": 217092.01757, "POINT_Y": 8822238.9742699992 }, "geometry": { "type": "Point", "coordinates": [ -41.585811999508898, -10.643678999725786 ] } },
{ "type": "Feature", "properties": { "NAME": "UMB_09_06", "LAYER": "Unknown Point Feature", "FID_1": 58, "TURBINE": "UMB_09_06", "E": 217098, "N": 8822017, "Z": 1058, "MUNICIPIO": "SENTO SÉ", "SPE": "UMB-09", "FRENTE": "FR-03", "LI": null, "LON": null, "LAT": null, "KML_STYLE": 803765712, "ELEVATION": 1058, "POINT_X": 217098.02976400001, "POINT_Y": 8822016.9976700004 }, "geometry": { "type": "Point", "coordinates": [ -41.58577399945608, -10.645684999728358 ] } },
{ "type": "Feature", "properties": { "NAME": "UMB_09_07", "LAYER": "Unknown Point Feature", "FID_1": 59, "TURBINE": "UMB_09_07", "E": 217057, "N": 8821785, "Z": 1069, "MUNICIPIO": "SENTO SÉ", "SPE": "UMB-09", "FRENTE": "FR-03", "LI": null, "LON": null, "LAT": null, "KML_STYLE": 803765712, "ELEVATION": 1069, "POINT_X": 217057.04789, "POINT_Y": 8821784.9996099994 }, "geometry": { "type": "Point", "coordinates": [ -41.586165999693236, -10.647778000080228 ] } },
{ "type": "Feature", "properties": { "NAME": "UMB_10_01", "LAYER": "Unknown Point Feature", "FID_1": 60, "TURBINE": "UMB_10_01", "E": 215962, "N": 8821303, "Z": 1040, "MUNICIPIO": "SENTO SÉ", "SPE": "UMB-10", "FRENTE": "FR-03", "LI": null, "LON": "41° 35' 46.34\" W", "LAT": "10° 39' 7.38\" S", "KML_STYLE": 803765712, "ELEVATION": 1040, "POINT_X": 215961.97554499999, "POINT_Y": 8821303.0079299994 }, "geometry": { "type": "Point", "coordinates": [ -41.596205000193159, -10.652050000293292 ] } },
{ "type": "Feature", "properties": { "NAME": "UMB_10_02", "LAYER": "Unknown Point Feature", "FID_1": 61, "TURBINE": "UMB_10_02", "E": 215951, "N": 8821067, "Z": 1049, "MUNICIPIO": "SENTO SÉ", "SPE": "UMB-10", "FRENTE": "FR-03", "LI": null, "LON": null, "LAT": null, "KML_STYLE": 803765712, "ELEVATION": 1049, "POINT_X": 215951.03450899999, "POINT_Y": 8821067.0522099994 }, "geometry": { "type": "Point", "coordinates": [ -41.596322999863474, -10.654181000070892 ] } },
{ "type": "Feature", "properties": { "NAME": "UMB_10_03", "LAYER": "Unknown Point Feature", "FID_1": 62, "TURBINE": "UMB_10_03", "E": 215889, "N": 8820861, "Z": 1090, "MUNICIPIO": "SENTO SÉ", "SPE": "UMB-10", "FRENTE": "FR-03", "LI": null, "LON": null, "LAT": null, "KML_STYLE": 803765712, "ELEVATION": 1090, "POINT_X": 215889.04383499999, "POINT_Y": 8820860.9952600002 }, "geometry": { "type": "Point", "coordinates": [ -41.596905000089755, -10.656037999629689 ] } },
{ "type": "Feature", "properties": { "NAME": "UMB_10_04", "LAYER": "Unknown Point Feature", "FID_1": 63, "TURBINE": "UMB_10_04", "E": 215757, "N": 8820698, "Z": 1032, "MUNICIPIO": "SENTO SÉ", "SPE": "UMB-10", "FRENTE": "FR-03", "LI": null, "LON": null, "LAT": null, "KML_STYLE": 803765712, "ELEVATION": 1032, "POINT_X": 215756.95370799999, "POINT_Y": 8820697.9586699996 }, "geometry": { "type": "Point", "coordinates": [ -41.598123999844873, -10.657500999716422 ] } },
{ "type": "Feature", "properties": { "NAME": "UMB_10_05", "LAYER": "Unknown Point Feature", "FID_1": 64, "TURBINE": "UMB_10_05", "E": 215973, "N": 8821543, "Z": 1046, "MUNICIPIO": "SENTO SÉ", "SPE": "UMB-10", "FRENTE": "FR-03", "LI": null, "LON": null, "LAT": null, "KML_STYLE": 803765712, "ELEVATION": 1046, "POINT_X": 215972.99324099999, "POINT_Y": 8821542.9487900008 }, "geometry": { "type": "Point", "coordinates": [ -41.596086000152326, -10.649882999866868 ] } },
{ "type": "Feature", "properties": { "NAME": "UMB_10_06", "LAYER": "Unknown Point Feature", "FID_1": 65, "TURBINE": "UMB_10_06", "E": 215343, "N": 8820431, "Z": 1014, "MUNICIPIO": "SENTO SÉ", "SPE": "UMB-10", "FRENTE": "FR-03", "LI": null, "LON": null, "LAT": null, "KML_STYLE": 803765712, "ELEVATION": 1014, "POINT_X": 215342.949582, "POINT_Y": 8820430.9459399991 }, "geometry": { "type": "Point", "coordinates": [ -41.601925999611431, -10.659882000345227 ] } },
{ "type": "Feature", "properties": { "NAME": "UMB_10_07", "LAYER": "Unknown Point Feature", "FID_1": 66, "TURBINE": "UMB_10_07", "E": 215196, "N": 8820270, "Z": 1008, "MUNICIPIO": "SENTO SÉ", "SPE": "UMB-10", "FRENTE": "FR-03", "LI": null, "LON": null, "LAT": null, "KML_STYLE": 803765712, "ELEVATION": 1008, "POINT_X": 215195.95686599999, "POINT_Y": 8820269.99443 }, "geometry": { "type": "Point", "coordinates": [ -41.603280999466584, -10.66132500023307 ] } },
{ "type": "Feature", "properties": { "NAME": "UMB_10_08", "LAYER": "Unknown Point Feature", "FID_1": 67, "TURBINE": "UMB_10_08", "E": 215071, "N": 8820098, "Z": 998, "MUNICIPIO": "SENTO SÉ", "SPE": "UMB-10", "FRENTE": "FR-03", "LI": null, "LON": null, "LAT": null, "KML_STYLE": 803765712, "ELEVATION": 998, "POINT_X": 215070.954104, "POINT_Y": 8820098.0480099991 }, "geometry": { "type": "Point", "coordinates": [ -41.60443599980978, -10.662869000076688 ] } },
{ "type": "Feature", "properties": { "NAME": "UMB_11_01", "LAYER": "Unknown Point Feature", "FID_1": 68, "TURBINE": "UMB_11_01", "E": 227510, "N": 8828672, "Z": 891, "MUNICIPIO": "SENTO SÉ", "SPE": "UMB-11", "FRENTE": "FR-01", "LI": "SIM", "LON": "41° 29' 24.66\" W", "LAT": "10° 35' 10.76\" S", "KML_STYLE": 803765712, "ELEVATION": 891, "POINT_X": 227510.027256, "POINT_Y": 8828672.0299399998 }, "geometry": { "type": "Point", "coordinates": [ -41.490182999433472, -10.586323000331854 ] } },
{ "type": "Feature", "properties": { "NAME": "UMB_11_02", "LAYER": "Unknown Point Feature", "FID_1": 69, "TURBINE": "UMB_11_02", "E": 227474, "N": 8828465, "Z": 900, "MUNICIPIO": "SENTO SÉ", "SPE": "UMB-11", "FRENTE": "FR-01", "LI": "SIM", "LON": null, "LAT": null, "KML_STYLE": 803765712, "ELEVATION": 900, "POINT_X": 227474.01460600001, "POINT_Y": 8828465.0055400003 }, "geometry": { "type": "Point", "coordinates": [ -41.490526999892637, -10.588191000367555 ] } },
{ "type": "Feature", "properties": { "NAME": "UMB_11_03", "LAYER": "Unknown Point Feature", "FID_1": 70, "TURBINE": "UMB_11_03", "E": 227414, "N": 8828240, "Z": 913, "MUNICIPIO": "SENTO SÉ", "SPE": "UMB-11", "FRENTE": "FR-01", "LI": null, "LON": null, "LAT": null, "KML_STYLE": 803765712, "ELEVATION": 913, "POINT_X": 227413.94805400001, "POINT_Y": 8828239.9703400005 }, "geometry": { "type": "Point", "coordinates": [ -41.491091999416874, -10.59022000038788 ] } },
{ "type": "Feature", "properties": { "NAME": "UMB_11_04", "LAYER": "Unknown Point Feature", "FID_1": 71, "TURBINE": "UMB_11_04", "E": 227378, "N": 8828012, "Z": 931, "MUNICIPIO": "SENTO SÉ", "SPE": "UMB-11", "FRENTE": "FR-01", "LI": null, "LON": null, "LAT": null, "KML_STYLE": 803765712, "ELEVATION": 931, "POINT_X": 227377.99486499999, "POINT_Y": 8828012.0288500004 }, "geometry": { "type": "Point", "coordinates": [ -41.491436999506625, -10.592276999574231 ] } },
{ "type": "Feature", "properties": { "NAME": "UMB_11_05", "LAYER": "Unknown Point Feature", "FID_1": 72, "TURBINE": "UMB_11_05", "E": 227295, "N": 8827787, "Z": 946, "MUNICIPIO": "SENTO SÉ", "SPE": "UMB-11", "FRENTE": "FR-01", "LI": null, "LON": null, "LAT": null, "KML_STYLE": 803765712, "ELEVATION": 946, "POINT_X": 227295.04573700001, "POINT_Y": 8827787.0313200001 }, "geometry": { "type": "Point", "coordinates": [ -41.492211000169938, -10.594304000197043 ] } },
{ "type": "Feature", "properties": { "NAME": "UMB_11_06", "LAYER": "Unknown Point Feature", "FID_1": 73, "TURBINE": "UMB_11_06", "E": 227175, "N": 8827600, "Z": 954, "MUNICIPIO": "SENTO SÉ", "SPE": "UMB-11", "FRENTE": "FR-01", "LI": null, "LON": null, "LAT": null, "KML_STYLE": 803765712, "ELEVATION": 954, "POINT_X": 227175.00376699999, "POINT_Y": 8827600.0291700009 }, "geometry": { "type": "Point", "coordinates": [ -41.493320999522815, -10.595984999706804 ] } },
{ "type": "Feature", "properties": { "NAME": "UMB_13_01", "LAYER": "Unknown Point Feature", "FID_1": 74, "TURBINE": "UMB_13_01", "E": 219410, "N": 8821899, "Z": 983, "MUNICIPIO": "SENTO SÉ", "SPE": "UMB-13", "FRENTE": "FR-02", "LI": null, "LON": "41° 33' 52.80\" W", "LAT": "10° 38' 48.93\" S", "KML_STYLE": 803765712, "ELEVATION": 983, "POINT_X": 219409.98351600001, "POINT_Y": 8821898.9646499995 }, "geometry": { "type": "Point", "coordinates": [ -41.564665999934149, -10.646924999564011 ] } },
{ "type": "Feature", "properties": { "NAME": "UMB_13_02", "LAYER": "Unknown Point Feature", "FID_1": 75, "TURBINE": "UMB_13_02", "E": 219368, "N": 8821664, "Z": 1000, "MUNICIPIO": "SENTO SÉ", "SPE": "UMB-13", "FRENTE": "FR-02", "LI": "SIM", "LON": null, "LAT": null, "KML_STYLE": 803765712, "ELEVATION": 1000, "POINT_X": 219368.02634700001, "POINT_Y": 8821663.9767700005 }, "geometry": { "type": "Point", "coordinates": [ -41.565067000220836, -10.649044999723717 ] } },
{ "type": "Feature", "properties": { "NAME": "UMB_13_03", "LAYER": "Unknown Point Feature", "FID_1": 76, "TURBINE": "UMB_13_03", "E": 219347, "N": 8821413, "Z": 1010, "MUNICIPIO": "SENTO SÉ", "SPE": "UMB-13", "FRENTE": "FR-02", "LI": null, "LON": null, "LAT": null, "KML_STYLE": 803765712, "ELEVATION": 1010, "POINT_X": 219347.00386600001, "POINT_Y": 8821413.0028099995 }, "geometry": { "type": "Point", "coordinates": [ -41.565277999487662, -10.651311000042481 ] } },
{ "type": "Feature", "properties": { "NAME": "UMB_13_04", "LAYER": "Unknown Point Feature", "FID_1": 77, "TURBINE": "UMB_13_04", "E": 219342, "N": 8821175, "Z": 1015, "MUNICIPIO": "SENTO SÉ", "SPE": "UMB-13", "FRENTE": "FR-02", "LI": "SIM", "LON": null, "LAT": null, "KML_STYLE": 803765712, "ELEVATION": 1015, "POINT_X": 219341.968257, "POINT_Y": 8821174.9999700002 }, "geometry": { "type": "Point", "coordinates": [ -41.565341999403181, -10.653460999707674 ] } },
{ "type": "Feature", "properties": { "NAME": "UMB_13_05", "LAYER": "Unknown Point Feature", "FID_1": 78, "TURBINE": "UMB_13_05", "E": 219321, "N": 8820950, "Z": 1020, "MUNICIPIO": "SENTO SÉ", "SPE": "UMB-13", "FRENTE": "FR-02", "LI": "SIM", "LON": null, "LAT": null, "KML_STYLE": 803765712, "ELEVATION": 1020, "POINT_X": 219320.95064299999, "POINT_Y": 8820950.0355399996 }, "geometry": { "type": "Point", "coordinates": [ -41.565551000192777, -10.65549200038471 ] } },
{ "type": "Feature", "properties": { "NAME": "UMB_13_06", "LAYER": "Unknown Point Feature", "FID_1": 79, "TURBINE": "UMB_13_06", "E": 219302, "N": 8820720, "Z": 1020, "MUNICIPIO": "SENTO SÉ", "SPE": "UMB-13", "FRENTE": "FR-02", "LI": "SIM", "LON": null, "LAT": null, "KML_STYLE": 803765712, "ELEVATION": 1020, "POINT_X": 219301.946348, "POINT_Y": 8820719.9964300003 }, "geometry": { "type": "Point", "coordinates": [ -41.565742000233151, -10.657569000228852 ] } },
{ "type": "Feature", "properties": { "NAME": "UMB_13_07", "LAYER": "Unknown Point Feature", "FID_1": 80, "TURBINE": "UMB_13_07", "E": 218991, "N": 8820602, "Z": 1030, "MUNICIPIO": "SENTO SÉ", "SPE": "UMB-13", "FRENTE": "FR-02", "LI": "SIM", "LON": null, "LAT": null, "KML_STYLE": 803765712, "ELEVATION": 1030, "POINT_X": 218991.02110799999, "POINT_Y": 8820601.9791000001 }, "geometry": { "type": "Point", "coordinates": [ -41.568590999863204, -10.658611999993273 ] } },
{ "type": "Feature", "properties": { "NAME": "UMB_13_08", "LAYER": "Unknown Point Feature", "FID_1": 81, "TURBINE": "UMB_13_08", "E": 218952, "N": 8820326, "Z": 1038, "MUNICIPIO": "SENTO SÉ", "SPE": "UMB-13", "FRENTE": "FR-02", "LI": "SIM", "LON": null, "LAT": null, "KML_STYLE": 803765712, "ELEVATION": 1038, "POINT_X": 218952.03867400001, "POINT_Y": 8820325.9518299997 }, "geometry": { "type": "Point", "coordinates": [ -41.568967999555063, -10.661103000257755 ] } },
{ "type": "Feature", "properties": { "NAME": "UMB_15_01", "LAYER": "Unknown Point Feature", "FID_1": 82, "TURBINE": "UMB_15_01", "E": 226795, "N": 8821307, "Z": 999, "MUNICIPIO": "SENTO SÉ", "SPE": "UMB-15", "FRENTE": "FR-01", "LI": null, "LON": "41° 29' 50.11\" W", "LAT": "10° 39' 10.15\" S", "KML_STYLE": 803765712, "ELEVATION": 999, "POINT_X": 226794.964847, "POINT_Y": 8821306.9645199999 }, "geometry": { "type": "Point", "coordinates": [ -41.497254000260156, -10.65281900018422 ] } },
{ "type": "Feature", "properties": { "NAME": "UMB_15_02", "LAYER": "Unknown Point Feature", "FID_1": 83, "TURBINE": "UMB_15_02", "E": 226821, "N": 8821580, "Z": 1017, "MUNICIPIO": "SENTO SÉ", "SPE": "UMB-15", "FRENTE": "FR-01", "LI": null, "LON": null, "LAT": null, "KML_STYLE": 803765712, "ELEVATION": 1017, "POINT_X": 226821.00852900001, "POINT_Y": 8821579.9852099996 }, "geometry": { "type": "Point", "coordinates": [ -41.496996000093667, -10.650354000048818 ] } },
{ "type": "Feature", "properties": { "NAME": "UMB_15_03", "LAYER": "Unknown Point Feature", "FID_1": 84, "TURBINE": "UMB_15_03", "E": 226845, "N": 8821806, "Z": 1022, "MUNICIPIO": "SENTO SÉ", "SPE": "UMB-15", "FRENTE": "FR-01", "LI": null, "LON": null, "LAT": null, "KML_STYLE": 803765712, "ELEVATION": 1022, "POINT_X": 226845.02380200001, "POINT_Y": 8821805.9530699998 }, "geometry": { "type": "Point", "coordinates": [ -41.496759999845835, -10.648313999719687 ] } },
{ "type": "Feature", "properties": { "NAME": "UMB_15_04", "LAYER": "Unknown Point Feature", "FID_1": 85, "TURBINE": "UMB_15_04", "E": 225164, "N": 8821720, "Z": 980, "MUNICIPIO": "SENTO SÉ", "SPE": "UMB-15", "FRENTE": "FR-01", "LI": "SIM", "LON": null, "LAT": null, "KML_STYLE": 803765712, "ELEVATION": 980, "POINT_X": 225164.051569, "POINT_Y": 8821719.9858199991 }, "geometry": { "type": "Point", "coordinates": [ -41.512120999542248, -10.648968000205274 ] } },
{ "type": "Feature", "properties": { "NAME": "UMB_15_05", "LAYER": "Unknown Point Feature", "FID_1": 86, "TURBINE": "UMB_15_05", "E": 225312, "N": 8821890, "Z": 994, "MUNICIPIO": "SENTO SÉ", "SPE": "UMB-15", "FRENTE": "FR-01", "LI": null, "LON": null, "LAT": null, "KML_STYLE": 803765712, "ELEVATION": 994, "POINT_X": 225312.00078500001, "POINT_Y": 8821889.9641600009 }, "geometry": { "type": "Point", "coordinates": [ -41.510756999683963, -10.647442999638292 ] } },
{ "type": "Feature", "properties": { "NAME": "UMB_15_06", "LAYER": "Unknown Point Feature", "FID_1": 87, "TURBINE": "UMB_15_06", "E": 225246, "N": 8822166, "Z": 1011, "MUNICIPIO": "SENTO SÉ", "SPE": "UMB-15", "FRENTE": "FR-01", "LI": "SIM", "LON": null, "LAT": null, "KML_STYLE": 803765712, "ELEVATION": 1011, "POINT_X": 225246.04822600001, "POINT_Y": 8822166.0063400008 }, "geometry": { "type": "Point", "coordinates": [ -41.511339000062556, -10.644944000347367 ] } },
{ "type": "Feature", "properties": { "NAME": "UMB_15_07", "LAYER": "Unknown Point Feature", "FID_1": 88, "TURBINE": "UMB_15_07", "E": 225478, "N": 8822297, "Z": 1033, "MUNICIPIO": "SENTO SÉ", "SPE": "UMB-15", "FRENTE": "FR-01", "LI": null, "LON": null, "LAT": null, "KML_STYLE": 803765712, "ELEVATION": 1033, "POINT_X": 225477.95718500001, "POINT_Y": 8822297.0418299995 }, "geometry": { "type": "Point", "coordinates": [ -41.509210999688889, -10.643777000248852 ] } },
{ "type": "Feature", "properties": { "NAME": "UMB_15_08", "LAYER": "Unknown Point Feature", "FID_1": 89, "TURBINE": "UMB_15_08", "E": 225583, "N": 8822487, "Z": 1040, "MUNICIPIO": "SENTO SÉ", "SPE": "UMB-15", "FRENTE": "FR-01", "LI": "SIM", "LON": null, "LAT": null, "KML_STYLE": 803765712, "ELEVATION": 1040, "POINT_X": 225583.05213200001, "POINT_Y": 8822487.0352299996 }, "geometry": { "type": "Point", "coordinates": [ -41.508237000119486, -10.642068000302995 ] } },
{ "type": "Feature", "properties": { "NAME": "UMB_16_01", "LAYER": "Unknown Point Feature", "FID_1": 90, "TURBINE": "UMB_16_01", "E": 219010, "N": 8816669, "Z": 1020, "MUNICIPIO": "SENTO SÉ", "SPE": "UMB-16", "FRENTE": "FR-02", "LI": "SIM", "LON": "41° 34' 7.38\" W", "LAT": "10° 41' 38.93\" S", "KML_STYLE": 803765712, "ELEVATION": 1020, "POINT_X": 219010.02487600001, "POINT_Y": 8816669.0105399992 }, "geometry": { "type": "Point", "coordinates": [ -41.568715999576142, -10.694148000342571 ] } },
{ "type": "Feature", "properties": { "NAME": "UMB_16_02", "LAYER": "Unknown Point Feature", "FID_1": 91, "TURBINE": "UMB_16_02", "E": 218967, "N": 8816447, "Z": 1015, "MUNICIPIO": "SENTO SÉ", "SPE": "UMB-16", "FRENTE": "FR-02", "LI": "SIM", "LON": null, "LAT": null, "KML_STYLE": 803765712, "ELEVATION": 1015, "POINT_X": 218966.993032, "POINT_Y": 8816446.9597699996 }, "geometry": { "type": "Point", "coordinates": [ -41.569126000080267, -10.696150999685782 ] } },
{ "type": "Feature", "properties": { "NAME": "UMB_16_03", "LAYER": "Unknown Point Feature", "FID_1": 92, "TURBINE": "UMB_16_03", "E": 218940, "N": 8816228, "Z": 1011, "MUNICIPIO": "SENTO SÉ", "SPE": "UMB-16", "FRENTE": "FR-02", "LI": "SIM", "LON": null, "LAT": null, "KML_STYLE": 803765712, "ELEVATION": 1011, "POINT_X": 218940.02734, "POINT_Y": 8816228.0309800003 }, "geometry": { "type": "Point", "coordinates": [ -41.569389000153251, -10.698126999796102 ] } },
{ "type": "Feature", "properties": { "NAME": "UMB_16_04", "LAYER": "Unknown Point Feature", "FID_1": 93, "TURBINE": "UMB_16_04", "E": 218913, "N": 8815999, "Z": 1005, "MUNICIPIO": "SENTO SÉ", "SPE": "UMB-16", "FRENTE": "FR-02", "LI": "SIM", "LON": null, "LAT": null, "KML_STYLE": 803765712, "ELEVATION": 1005, "POINT_X": 218913.03681399999, "POINT_Y": 8815999.0299399998 }, "geometry": { "type": "Point", "coordinates": [ -41.569652999921971, -10.700194000340007 ] } },
{ "type": "Feature", "properties": { "NAME": "UMB_16_05", "LAYER": "Unknown Point Feature", "FID_1": 94, "TURBINE": "UMB_16_05", "E": 218874, "N": 8815787, "Z": 997, "MUNICIPIO": "SENTO SÉ", "SPE": "UMB-16", "FRENTE": "FR-02", "LI": "SIM", "LON": null, "LAT": null, "KML_STYLE": 803765712, "ELEVATION": 997, "POINT_X": 218873.97435599999, "POINT_Y": 8815786.97291 }, "geometry": { "type": "Point", "coordinates": [ -41.570025999390261, -10.70210700004462 ] } },
{ "type": "Feature", "properties": { "NAME": "UMB_16_06", "LAYER": "Unknown Point Feature", "FID_1": 95, "TURBINE": "UMB_16_06", "E": 218836, "N": 8815557, "Z": 990, "MUNICIPIO": "SENTO SÉ", "SPE": "UMB-16", "FRENTE": "FR-02", "LI": "SIM", "LON": null, "LAT": null, "KML_STYLE": 803765712, "ELEVATION": 990, "POINT_X": 218836.047299, "POINT_Y": 8815556.9949200004 }, "geometry": { "type": "Point", "coordinates": [ -41.570389999787217, -10.704182000181286 ] } },
{ "type": "Feature", "properties": { "NAME": "UMB_16_07", "LAYER": "Unknown Point Feature", "FID_1": 96, "TURBINE": "UMB_16_07", "E": 218710, "N": 8815391, "Z": 978, "MUNICIPIO": "SENTO SÉ", "SPE": "UMB-16", "FRENTE": "FR-02", "LI": null, "LON": null, "LAT": null, "KML_STYLE": 803765712, "ELEVATION": 978, "POINT_X": 218710.01788100001, "POINT_Y": 8815391.0298599992 }, "geometry": { "type": "Point", "coordinates": [ -41.571553999612334, -10.705671999620215 ] } },
{ "type": "Feature", "properties": { "NAME": "UMB_16_08", "LAYER": "Unknown Point Feature", "FID_1": 97, "TURBINE": "UMB_16_08", "E": 218396, "N": 8815208, "Z": 952, "MUNICIPIO": "SENTO SÉ", "SPE": "UMB-16", "FRENTE": "FR-02", "LI": null, "LON": null, "LAT": null, "KML_STYLE": 803765712, "ELEVATION": 952, "POINT_X": 218395.96828299999, "POINT_Y": 8815207.9985600002 }, "geometry": { "type": "Point", "coordinates": [ -41.574436999636177, -10.707301999642173 ] } },
{ "type": "Feature", "properties": { "NAME": "UMB_16_09", "LAYER": "Unknown Point Feature", "FID_1": 98, "TURBINE": "UMB_16_09", "E": 217783, "N": 8816622, "Z": 954, "MUNICIPIO": "SENTO SÉ", "SPE": "UMB-16", "FRENTE": "FR-02", "LI": null, "LON": null, "LAT": null, "KML_STYLE": 803765712, "ELEVATION": 954, "POINT_X": 217782.974338, "POINT_Y": 8816622.0267600007 }, "geometry": { "type": "Point", "coordinates": [ -41.579929000131635, -10.694479999626699 ] } },
{ "type": "Feature", "properties": { "NAME": "UMB_16_10", "LAYER": "Unknown Point Feature", "FID_1": 99, "TURBINE": "UMB_16_10", "E": 217680, "N": 8816423, "Z": 947, "MUNICIPIO": "SENTO SÉ", "SPE": "UMB-16", "FRENTE": "FR-02", "LI": null, "LON": null, "LAT": null, "KML_STYLE": 803765712, "ELEVATION": 947, "POINT_X": 217679.98895, "POINT_Y": 8816423.0460100006 }, "geometry": { "type": "Point", "coordinates": [ -41.580885000242375, -10.696270000085763 ] } },
{ "type": "Feature", "properties": { "NAME": "UMB_17_01", "LAYER": "Unknown Point Feature", "FID_1": 100, "TURBINE": "UMB_17_01", "E": 218800, "N": 8819080, "Z": 1055, "MUNICIPIO": "SENTO SÉ", "SPE": "UMB-17", "FRENTE": "FR-02", "LI": "SIM", "LON": "41° 34' 13.62\" W", "LAT": "10° 40' 20.46\" S", "KML_STYLE": 803765712, "ELEVATION": 1055, "POINT_X": 218800.03704299999, "POINT_Y": 8819079.9809300005 }, "geometry": { "type": "Point", "coordinates": [ -41.570451000186985, -10.672349000247541 ] } },
{ "type": "Feature", "properties": { "NAME": "UMB_17_02", "LAYER": "Unknown Point Feature", "FID_1": 101, "TURBINE": "UMB_17_02", "E": 218985, "N": 8818650, "Z": 1054, "MUNICIPIO": "SENTO SÉ", "SPE": "UMB-17", "FRENTE": "FR-02", "LI": null, "LON": null, "LAT": null, "KML_STYLE": 803765712, "ELEVATION": 1054, "POINT_X": 218985.007973, "POINT_Y": 8818649.9767300002 }, "geometry": { "type": "Point", "coordinates": [ -41.56879399954461, -10.676248000286737 ] } },
{ "type": "Feature", "properties": { "NAME": "UMB_17_03", "LAYER": "Unknown Point Feature", "FID_1": 102, "TURBINE": "UMB_17_03", "E": 219050, "N": 8818325, "Z": 1053, "MUNICIPIO": "SENTO SÉ", "SPE": "UMB-17", "FRENTE": "FR-02", "LI": "SIM", "LON": null, "LAT": null, "KML_STYLE": 803765712, "ELEVATION": 1053, "POINT_X": 219049.99831600001, "POINT_Y": 8818325.0068800002 }, "geometry": { "type": "Point", "coordinates": [ -41.568224999941833, -10.679188999805806 ] } },
{ "type": "Feature", "properties": { "NAME": "UMB_17_04", "LAYER": "Unknown Point Feature", "FID_1": 103, "TURBINE": "UMB_17_04", "E": 219062, "N": 8818078, "Z": 1049, "MUNICIPIO": "SENTO SÉ", "SPE": "UMB-17", "FRENTE": "FR-02", "LI": null, "LON": null, "LAT": null, "KML_STYLE": 803765712, "ELEVATION": 1049, "POINT_X": 219062.013775, "POINT_Y": 8818077.9582199994 }, "geometry": { "type": "Point", "coordinates": [ -41.568133999569191, -10.681422000207556 ] } },
{ "type": "Feature", "properties": { "NAME": "UMB_17_05", "LAYER": "Unknown Point Feature", "FID_1": 104, "TURBINE": "UMB_17_05", "E": 219083, "N": 8817826, "Z": 1042, "MUNICIPIO": "SENTO SÉ", "SPE": "UMB-17", "FRENTE": "FR-02", "LI": null, "LON": null, "LAT": null, "KML_STYLE": 803765712, "ELEVATION": 1042, "POINT_X": 219083.046783, "POINT_Y": 8817826.0039399993 }, "geometry": { "type": "Point", "coordinates": [ -41.567960999640192, -10.683700000386079 ] } },
{ "type": "Feature", "properties": { "NAME": "UMB_17_06", "LAYER": "Unknown Point Feature", "FID_1": 105, "TURBINE": "UMB_17_06", "E": 219152, "N": 8817551, "Z": 1035, "MUNICIPIO": "SENTO SÉ", "SPE": "UMB-17", "FRENTE": "FR-02", "LI": "SIM", "LON": null, "LAT": null, "KML_STYLE": 803765712, "ELEVATION": 1035, "POINT_X": 219151.99996099999, "POINT_Y": 8817550.98398 }, "geometry": { "type": "Point", "coordinates": [ -41.567351999433441, -10.686189999849921 ] } },
{ "type": "Feature", "properties": { "NAME": "UMB_17_07", "LAYER": "Unknown Point Feature", "FID_1": 106, "TURBINE": "UMB_17_07", "E": 219123, "N": 8817320, "Z": 1030, "MUNICIPIO": "SENTO SÉ", "SPE": "UMB-17", "FRENTE": "FR-02", "LI": "SIM", "LON": null, "LAT": null, "KML_STYLE": 803765712, "ELEVATION": 1030, "POINT_X": 219123.051015, "POINT_Y": 8817319.9753799997 }, "geometry": { "type": "Point", "coordinates": [ -41.567633999926883, -10.688274999833371 ] } },
{ "type": "Feature", "properties": { "NAME": "UMB_17_08", "LAYER": "Unknown Point Feature", "FID_1": 107, "TURBINE": "UMB_17_08", "E": 219078, "N": 8817111, "Z": 1029, "MUNICIPIO": "SENTO SÉ", "SPE": "UMB-17", "FRENTE": "FR-02", "LI": "SIM", "LON": null, "LAT": null, "KML_STYLE": 803765712, "ELEVATION": 1029, "POINT_X": 219078.04709599999, "POINT_Y": 8817110.9690700006 }, "geometry": { "type": "Point", "coordinates": [ -41.568060999753811, -10.690159999743894 ] } },
{ "type": "Feature", "properties": { "NAME": "UMB_17_09", "LAYER": "Unknown Point Feature", "FID_1": 108, "TURBINE": "UMB_17_09", "E": 219034, "N": 8816888, "Z": 1025, "MUNICIPIO": "SENTO SÉ", "SPE": "UMB-17", "FRENTE": "FR-02", "LI": "SIM", "LON": null, "LAT": null, "KML_STYLE": 803765712, "ELEVATION": 1025, "POINT_X": 219034.03577300001, "POINT_Y": 8816888.0251000002 }, "geometry": { "type": "Point", "coordinates": [ -41.56847999954477, -10.692171000006766 ] } },
{ "type": "Feature", "properties": { "NAME": "UMB_18_01", "LAYER": "Unknown Point Feature", "FID_1": 109, "TURBINE": "UMB_18_01", "E": 216928, "N": 8821508, "Z": 1122, "MUNICIPIO": "SENTO SÉ", "SPE": "UMB-18", "FRENTE": "FR-03", "LI": null, "LON": "41° 35' 14.52\" W", "LAT": "10° 39' 0.98\" S", "KML_STYLE": 803765712, "ELEVATION": 1122, "POINT_X": 216927.98056900001, "POINT_Y": 8821507.9932100009 }, "geometry": { "type": "Point", "coordinates": [ -41.587365999503959, -10.650271000095284 ] } },
{ "type": "Feature", "properties": { "NAME": "UMB_18_02", "LAYER": "Unknown Point Feature", "FID_1": 110, "TURBINE": "UMB_18_02", "E": 216986, "N": 8821168, "Z": 1085, "MUNICIPIO": "SENTO SÉ", "SPE": "UMB-18", "FRENTE": "FR-03", "LI": null, "LON": null, "LAT": null, "KML_STYLE": 803765712, "ELEVATION": 1085, "POINT_X": 216985.99911, "POINT_Y": 8821168.0214900002 }, "geometry": { "type": "Point", "coordinates": [ -41.586861999871914, -10.653346999891877 ] } },
{ "type": "Feature", "properties": { "NAME": "UMB_18_03", "LAYER": "Unknown Point Feature", "FID_1": 111, "TURBINE": "UMB_18_03", "E": 217026, "N": 8820912, "Z": 1079, "MUNICIPIO": "SENTO SÉ", "SPE": "UMB-18", "FRENTE": "FR-03", "LI": null, "LON": null, "LAT": null, "KML_STYLE": 803765712, "ELEVATION": 1079, "POINT_X": 217026.01798, "POINT_Y": 8820912.0174400005 }, "geometry": { "type": "Point", "coordinates": [ -41.586515999607023, -10.655663000395437 ] } },
{ "type": "Feature", "properties": { "NAME": "UMB_19_01", "LAYER": "Unknown Point Feature", "FID_1": 112, "TURBINE": "UMB_19_01", "E": 227030, "N": 8827419, "Z": 961, "MUNICIPIO": "SENTO SÉ", "SPE": "UMB-19", "FRENTE": "FR-01", "LI": null, "LON": "41° 29' 40.77\" W", "LAT": "10° 35' 51.40\" S", "KML_STYLE": 803765712, "ELEVATION": 961, "POINT_X": 227029.950641, "POINT_Y": 8827419.0235600006 }, "geometry": { "type": "Point", "coordinates": [ -41.494659000195362, -10.597609999588926 ] } },
{ "type": "Feature", "properties": { "NAME": "UMB_19_02", "LAYER": "Unknown Point Feature", "FID_1": 113, "TURBINE": "UMB_19_02", "E": 226902, "N": 8827232, "Z": 975, "MUNICIPIO": "SENTO SÉ", "SPE": "UMB-19", "FRENTE": "FR-01", "LI": null, "LON": null, "LAT": null, "KML_STYLE": 803765712, "ELEVATION": 975, "POINT_X": 226902.028685, "POINT_Y": 8827231.9565900005 }, "geometry": { "type": "Point", "coordinates": [ -41.495840999695083, -10.599290999936567 ] } },
{ "type": "Feature", "properties": { "NAME": "UMB_19_03", "LAYER": "Unknown Point Feature", "FID_1": 114, "TURBINE": "UMB_19_03", "E": 226770, "N": 8827055, "Z": 985, "MUNICIPIO": "SENTO SÉ", "SPE": "UMB-19", "FRENTE": "FR-01", "LI": null, "LON": null, "LAT": null, "KML_STYLE": 803765712, "ELEVATION": 985, "POINT_X": 226769.975618, "POINT_Y": 8827055.0375999995 }, "geometry": { "type": "Point", "coordinates": [ -41.497059999993944, -10.600880000022036 ] } },
{ "type": "Feature", "properties": { "NAME": "UMB_19_04", "LAYER": "Unknown Point Feature", "FID_1": 115, "TURBINE": "UMB_19_04", "E": 226643, "N": 8826858, "Z": 994, "MUNICIPIO": "SENTO SÉ", "SPE": "UMB-19", "FRENTE": "FR-01", "LI": "SIM", "LON": null, "LAT": null, "KML_STYLE": 803765712, "ELEVATION": 994, "POINT_X": 226643.01255300001, "POINT_Y": 8826858.0160399992 }, "geometry": { "type": "Point", "coordinates": [ -41.49823399940496, -10.602651000397529 ] } },
{ "type": "Feature", "properties": { "NAME": "UMB_19_05", "LAYER": "Unknown Point Feature", "FID_1": 116, "TURBINE": "UMB_19_05", "E": 226458, "N": 8826681, "Z": 1004, "MUNICIPIO": "SENTO SÉ", "SPE": "UMB-19", "FRENTE": "FR-01", "LI": null, "LON": null, "LAT": null, "KML_STYLE": 803765712, "ELEVATION": 1004, "POINT_X": 226457.969228, "POINT_Y": 8826681.00165 }, "geometry": { "type": "Point", "coordinates": [ -41.499937000083001, -10.604236999578816 ] } },
{ "type": "Feature", "properties": { "NAME": "UMB_19_07", "LAYER": "Unknown Point Feature", "FID_1": 117, "TURBINE": "UMB_19_07", "E": 227124, "N": 8825559, "Z": 1046, "MUNICIPIO": "SENTO SÉ", "SPE": "UMB-19", "FRENTE": "FR-01", "LI": null, "LON": null, "LAT": null, "KML_STYLE": 803765712, "ELEVATION": 1046, "POINT_X": 227124.025387, "POINT_Y": 8825559.0297800004 }, "geometry": { "type": "Point", "coordinates": [ -41.493935999707311, -10.614422999829074 ] } },
{ "type": "Feature", "properties": { "NAME": "UMB_19_08", "LAYER": "Unknown Point Feature", "FID_1": 118, "TURBINE": "UMB_19_08", "E": 227006, "N": 8825366, "Z": 1055, "MUNICIPIO": "SENTO SÉ", "SPE": "UMB-19", "FRENTE": "FR-01", "LI": "SIM", "LON": null, "LAT": null, "KML_STYLE": 803765712, "ELEVATION": 1055, "POINT_X": 227006.01457100001, "POINT_Y": 8825365.9539500009 }, "geometry": { "type": "Point", "coordinates": [ -41.495027999570894, -10.616159000421737 ] } },
{ "type": "Feature", "properties": { "NAME": "UMB_19_09", "LAYER": "Unknown Point Feature", "FID_1": 119, "TURBINE": "UMB_19_09", "E": 226905, "N": 8825112, "Z": 1055, "MUNICIPIO": "SENTO SÉ", "SPE": "UMB-19", "FRENTE": "FR-01", "LI": "SIM", "LON": null, "LAT": null, "KML_STYLE": 803765712, "ELEVATION": 1055, "POINT_X": 226905.02646600001, "POINT_Y": 8825112.0330500007 }, "geometry": { "type": "Point", "coordinates": [ -41.495968999514403, -10.618445999547998 ] } },
{ "type": "Feature", "properties": { "NAME": "UMB_19_10", "LAYER": "Unknown Point Feature", "FID_1": 120, "TURBINE": "UMB_19_10", "E": 226777, "N": 8824936, "Z": 1053, "MUNICIPIO": "SENTO SÉ", "SPE": "UMB-19", "FRENTE": "FR-01", "LI": "SIM", "LON": null, "LAT": null, "KML_STYLE": 803765712, "ELEVATION": 1053, "POINT_X": 226777.02791899999, "POINT_Y": 8824936.0298599992 }, "geometry": { "type": "Point", "coordinates": [ -41.497150999996308, -10.620026999623679 ] } },
{ "type": "Feature", "properties": { "NAME": "UMB_19_11", "LAYER": "Unknown Point Feature", "FID_1": 121, "TURBINE": "UMB_19_11", "E": 226602, "N": 8824756, "Z": 1047, "MUNICIPIO": "SENTO SÉ", "SPE": "UMB-19", "FRENTE": "FR-01", "LI": "SIM", "LON": null, "LAT": null, "KML_STYLE": 803765712, "ELEVATION": 1047, "POINT_X": 226601.98444100001, "POINT_Y": 8824755.9952399991 }, "geometry": { "type": "Point", "coordinates": [ -41.498763000204086, -10.621641000312923 ] } },
{ "type": "Feature", "properties": { "NAME": "UMB_21_01", "LAYER": "Unknown Point Feature", "FID_1": 122, "TURBINE": "UMB_21_01", "E": 216131, "N": 8815886, "Z": 860, "MUNICIPIO": "SENTO SÉ", "SPE": "UMB-21", "FRENTE": "FR-02", "LI": null, "LON": "41° 35' 42.28\" W", "LAT": "10° 42' 3.62\" S", "KML_STYLE": 803765712, "ELEVATION": 860, "POINT_X": 216130.958981, "POINT_Y": 8815885.9691199996 }, "geometry": { "type": "Point", "coordinates": [ -41.595076999609994, -10.701005000195693 ] } },
{ "type": "Feature", "properties": { "NAME": "UMB_21_02", "LAYER": "Unknown Point Feature", "FID_1": 123, "TURBINE": "UMB_21_02", "E": 216019, "N": 8815681, "Z": 869, "MUNICIPIO": "SENTO SÉ", "SPE": "UMB-21", "FRENTE": "FR-02", "LI": null, "LON": null, "LAT": null, "KML_STYLE": 803765712, "ELEVATION": 869, "POINT_X": 216018.94988599999, "POINT_Y": 8815681.03816 }, "geometry": { "type": "Point", "coordinates": [ -41.59611599964358, -10.702847999601078 ] } },
{ "type": "Feature", "properties": { "NAME": "UMB_21_04", "LAYER": "Unknown Point Feature", "FID_1": 124, "TURBINE": "UMB_21_04", "E": 215565, "N": 8814969, "Z": 858, "MUNICIPIO": "SENTO SÉ", "SPE": "UMB-21", "FRENTE": "FR-02", "LI": null, "LON": null, "LAT": null, "KML_STYLE": 803765712, "ELEVATION": 858, "POINT_X": 215564.98557300001, "POINT_Y": 8814968.9515700005 }, "geometry": { "type": "Point", "coordinates": [ -41.600317999525323, -10.709246999760571 ] } },
{ "type": "Feature", "properties": { "NAME": "UMB_21_05", "LAYER": "Unknown Point Feature", "FID_1": 125, "TURBINE": "UMB_21_05", "E": 215493, "N": 8814750, "Z": 855, "MUNICIPIO": "SENTO SÉ", "SPE": "UMB-21", "FRENTE": "FR-02", "LI": null, "LON": null, "LAT": null, "KML_STYLE": 803765712, "ELEVATION": 855, "POINT_X": 215492.946838, "POINT_Y": 8814749.9657099992 }, "geometry": { "type": "Point", "coordinates": [ -41.600993000121285, -10.711220000078722 ] } },
{ "type": "Feature", "properties": { "NAME": "UMB_21_06", "LAYER": "Unknown Point Feature", "FID_1": 126, "TURBINE": "UMB_21_06", "E": 215487, "N": 8814507, "Z": 857, "MUNICIPIO": "SENTO SÉ", "SPE": "UMB-21", "FRENTE": "FR-02", "LI": "SIM", "LON": null, "LAT": null, "KML_STYLE": 803765712, "ELEVATION": 857, "POINT_X": 215487.008038, "POINT_Y": 8814506.9660400003 }, "geometry": { "type": "Point", "coordinates": [ -41.601066000131148, -10.713415000377042 ] } },
{ "type": "Feature", "properties": { "NAME": "UMB_21_07", "LAYER": "Unknown Point Feature", "FID_1": 127, "TURBINE": "UMB_21_07", "E": 215298, "N": 8814346, "Z": 852, "MUNICIPIO": "SENTO SÉ", "SPE": "UMB-21", "FRENTE": "FR-02", "LI": "SIM", "LON": null, "LAT": null, "KML_STYLE": 803765712, "ELEVATION": 852, "POINT_X": 215298.014857, "POINT_Y": 8814345.9854600001 }, "geometry": { "type": "Point", "coordinates": [ -41.602804999380119, -10.714854999674014 ] } },
{ "type": "Feature", "properties": { "NAME": "UMB_21_08", "LAYER": "Unknown Point Feature", "FID_1": 128, "TURBINE": "UMB_21_08", "E": 215235, "N": 8814111, "Z": 860, "MUNICIPIO": "SENTO SÉ", "SPE": "UMB-21", "FRENTE": "FR-02", "LI": "SIM", "LON": null, "LAT": null, "KML_STYLE": 803765712, "ELEVATION": 860, "POINT_X": 215234.98143099999, "POINT_Y": 8814111.0252400003 }, "geometry": { "type": "Point", "coordinates": [ -41.603399000058118, -10.716973000378989 ] } },
{ "type": "Feature", "properties": { "NAME": "UMB_21_09", "LAYER": "Unknown Point Feature", "FID_1": 129, "TURBINE": "UMB_21_09", "E": 215127, "N": 8813906, "Z": 867, "MUNICIPIO": "SENTO SÉ", "SPE": "UMB-21", "FRENTE": "FR-02", "LI": "SIM", "LON": null, "LAT": null, "KML_STYLE": 803765712, "ELEVATION": 867, "POINT_X": 215127.03633800001, "POINT_Y": 8813906.0119899996 }, "geometry": { "type": "Point", "coordinates": [ -41.604401000121598, -10.718816999913793 ] } },
{ "type": "Feature", "properties": { "NAME": "UMB_21_10", "LAYER": "Unknown Point Feature", "FID_1": 130, "TURBINE": "UMB_21_10", "E": 215027, "N": 8813691, "Z": 877, "MUNICIPIO": "SENTO SÉ", "SPE": "UMB-21", "FRENTE": "FR-02", "LI": "SIM", "LON": null, "LAT": null, "KML_STYLE": 803765712, "ELEVATION": 877, "POINT_X": 215026.949093, "POINT_Y": 8813690.9923500009 }, "geometry": { "type": "Point", "coordinates": [ -41.60533199970984, -10.720751999571421 ] } },
{ "type": "Feature", "properties": { "NAME": "UMB_23_02", "LAYER": "Unknown Point Feature", "FID_1": 131, "TURBINE": "UMB_23_02", "E": 215502, "N": 8824626, "Z": 1090, "MUNICIPIO": "SENTO SÉ", "SPE": "UMB-23", "FRENTE": "FR-03", "LI": null, "LON": "41° 36' 0.55\" W", "LAT": "10° 37' 19.17\" S", "KML_STYLE": 803765712, "ELEVATION": 1090, "POINT_X": 215501.98953799999, "POINT_Y": 8824626.0456399992 }, "geometry": { "type": "Point", "coordinates": [ -41.600152000124773, -10.621992000337562 ] } },
{ "type": "Feature", "properties": { "NAME": "UMB_23_03", "LAYER": "Unknown Point Feature", "FID_1": 132, "TURBINE": "UMB_23_03", "E": 215348, "N": 8824476, "Z": 1080, "MUNICIPIO": "SENTO SÉ", "SPE": "UMB-23", "FRENTE": "FR-03", "LI": null, "LON": null, "LAT": null, "KML_STYLE": 803765712, "ELEVATION": 1080, "POINT_X": 215347.98359399999, "POINT_Y": 8824475.9987499993 }, "geometry": { "type": "Point", "coordinates": [ -41.60156999972105, -10.623336000430474 ] } },
{ "type": "Feature", "properties": { "NAME": "UMB_23_04", "LAYER": "Unknown Point Feature", "FID_1": 133, "TURBINE": "UMB_23_04", "E": 215215, "N": 8824343, "Z": 1073, "MUNICIPIO": "SENTO SÉ", "SPE": "UMB-23", "FRENTE": "FR-03", "LI": null, "LON": null, "LAT": null, "KML_STYLE": 803765712, "ELEVATION": 1073, "POINT_X": 215214.968746, "POINT_Y": 8824342.9505199995 }, "geometry": { "type": "Point", "coordinates": [ -41.602795000199336, -10.624528000212901 ] } },
{ "type": "Feature", "properties": { "NAME": "UMB_23_05", "LAYER": "Unknown Point Feature", "FID_1": 134, "TURBINE": "UMB_23_05", "E": 215062, "N": 8824189, "Z": 1065, "MUNICIPIO": "SENTO SÉ", "SPE": "UMB-23", "FRENTE": "FR-03", "LI": null, "LON": null, "LAT": null, "KML_STYLE": 803765712, "ELEVATION": 1065, "POINT_X": 215061.98320399999, "POINT_Y": 8824189.0363400001 }, "geometry": { "type": "Point", "coordinates": [ -41.604203999808888, -10.625907000346873 ] } },
{ "type": "Feature", "properties": { "NAME": "UMB_23_06", "LAYER": "Unknown Point Feature", "FID_1": 135, "TURBINE": "UMB_23_06", "E": 214232, "N": 8823121, "Z": 992, "MUNICIPIO": "SENTO SÉ", "SPE": "UMB-23", "FRENTE": "FR-03", "LI": null, "LON": null, "LAT": null, "KML_STYLE": 803765712, "ELEVATION": 992, "POINT_X": 214232.032232, "POINT_Y": 8823121.0530299991 }, "geometry": { "type": "Point", "coordinates": [ -41.611866000059145, -10.635493000283732 ] } },
{ "type": "Feature", "properties": { "NAME": "UMB_23_07", "LAYER": "Unknown Point Feature", "FID_1": 136, "TURBINE": "UMB_23_07", "E": 214121, "N": 8822907, "Z": 984, "MUNICIPIO": "SENTO SÉ", "SPE": "UMB-23", "FRENTE": "FR-03", "LI": null, "LON": null, "LAT": null, "KML_STYLE": 803765712, "ELEVATION": 984, "POINT_X": 214120.95026300001, "POINT_Y": 8822907.0515700001 }, "geometry": { "type": "Point", "coordinates": [ -41.612896999423377, -10.637417999688855 ] } },
{ "type": "Feature", "properties": { "NAME": "UMB_25_01", "LAYER": "Unknown Point Feature", "FID_1": 137, "TURBINE": "UMB_25_01", "E": 222836, "N": 8821945, "Z": 997, "MUNICIPIO": "SENTO SÉ", "SPE": "UMB-25", "FRENTE": "FR-02", "LI": "SIM", "LON": "41° 32' 0.13\" W", "LAT": "10° 38' 48.35\" S", "KML_STYLE": 803765712, "ELEVATION": 997, "POINT_X": 222836.026686, "POINT_Y": 8821944.9631999992 }, "geometry": { "type": "Point", "coordinates": [ -41.533368999684129, -10.646763999963282 ] } },
{ "type": "Feature", "properties": { "NAME": "UMB_25_02", "LAYER": "Unknown Point Feature", "FID_1": 138, "TURBINE": "UMB_25_02", "E": 222917, "N": 8821652, "Z": 1009, "MUNICIPIO": "SENTO SÉ", "SPE": "UMB-25", "FRENTE": "FR-02", "LI": "SIM", "LON": null, "LAT": null, "KML_STYLE": 803765712, "ELEVATION": 1009, "POINT_X": 222917.027382, "POINT_Y": 8821651.9998400006 }, "geometry": { "type": "Point", "coordinates": [ -41.532650999650265, -10.649417000398989 ] } },
{ "type": "Feature", "properties": { "NAME": "UMB_25_03", "LAYER": "Unknown Point Feature", "FID_1": 139, "TURBINE": "UMB_25_03", "E": 222913, "N": 8821403, "Z": 1013, "MUNICIPIO": "SENTO SÉ", "SPE": "UMB-25", "FRENTE": "FR-02", "LI": "SIM", "LON": null, "LAT": null, "KML_STYLE": 803765712, "ELEVATION": 1013, "POINT_X": 222913.041222, "POINT_Y": 8821403.0552200004 }, "geometry": { "type": "Point", "coordinates": [ -41.532706000018742, -10.651666000218352 ] } },
{ "type": "Feature", "properties": { "NAME": "UMB_25_04", "LAYER": "Unknown Point Feature", "FID_1": 140, "TURBINE": "UMB_25_04", "E": 222895, "N": 8821171, "Z": 1014, "MUNICIPIO": "SENTO SÉ", "SPE": "UMB-25", "FRENTE": "FR-02", "LI": "SIM", "LON": null, "LAT": null, "KML_STYLE": 803765712, "ELEVATION": 1014, "POINT_X": 222895.01355500001, "POINT_Y": 8821171.0399500001 }, "geometry": { "type": "Point", "coordinates": [ -41.532887999400927, -10.653761000414823 ] } },
{ "type": "Feature", "properties": { "NAME": "UMB_25_05", "LAYER": "Unknown Point Feature", "FID_1": 141, "TURBINE": "UMB_25_05", "E": 222837, "N": 8820951, "Z": 1006, "MUNICIPIO": "SENTO SÉ", "SPE": "UMB-25", "FRENTE": "FR-02", "LI": "SIM", "LON": null, "LAT": null, "KML_STYLE": 803765712, "ELEVATION": 1006, "POINT_X": 222837.03932899999, "POINT_Y": 8820950.9828999992 }, "geometry": { "type": "Point", "coordinates": [ -41.533434000073704, -10.655744999950675 ] } },
{ "type": "Feature", "properties": { "NAME": "UMB_25_06", "LAYER": "Unknown Point Feature", "FID_1": 142, "TURBINE": "UMB_25_06", "E": 222748, "N": 8820751, "Z": 995, "MUNICIPIO": "SENTO SÉ", "SPE": "UMB-25", "FRENTE": "FR-02", "LI": "SIM", "LON": null, "LAT": null, "KML_STYLE": 803765712, "ELEVATION": 995, "POINT_X": 222748.02943200001, "POINT_Y": 8820751.0360599998 }, "geometry": { "type": "Point", "coordinates": [ -41.534262000098948, -10.657544999627071 ] } },
{ "type": "Feature", "properties": { "NAME": "UMB_25_07", "LAYER": "Unknown Point Feature", "FID_1": 143, "TURBINE": "UMB_25_07", "E": 222653, "N": 8820559, "Z": 981, "MUNICIPIO": "SENTO SÉ", "SPE": "UMB-25", "FRENTE": "FR-02", "LI": "SIM", "LON": null, "LAT": null, "KML_STYLE": 803765712, "ELEVATION": 981, "POINT_X": 222653.04430199999, "POINT_Y": 8820559.0085199997 }, "geometry": { "type": "Point", "coordinates": [ -41.535143999826751, -10.659273000213467 ] } }
]
}
