{
"type": "FeatureCollection",
"name": "ceur",
"crs": { "type": "name", "properties": { "name": "urn:ogc:def:crs:OGC:1.3:CRS84" } },
"features": [
{ "type": "Feature", "properties": { "NAME": "Poligonal Geral CE Umburanas", "LAYER": "Unknown Area Type", "KML_STYLE": "stylemap_id0", "tessellate": 1, "Shape_Leng": 75311.3372581, "Shape_Area": 253588913.45500001 }, "geometry": { "type": "Polygon", "coordinates": [ [ [ -41.571400020039214, -10.551332836072383 ], [ -41.498731405300013, -10.554103902659248 ], [ -41.494701240571239, -10.560025474219952 ], [ -41.48844590528838, -10.57297718593402 ], [ -41.482713451609506, -10.580352894857297 ], [ -41.479831521154459, -10.580430800692065 ], [ -41.476108103344686, -10.585852356328362 ], [ -41.469134977237509, -10.591334813408244 ], [ -41.463102876331803, -10.597654715218409 ], [ -41.469104498940624, -10.617896696829552 ], [ -41.471787399514824, -10.624712410632316 ], [ -41.473582697307897, -10.628387880774897 ], [ -41.474248113080506, -10.629943039256018 ], [ -41.476737133394948, -10.630988114551803 ], [ -41.480665341470157, -10.632821732785022 ], [ -41.484588160695736, -10.634629212907312 ], [ -41.485818655725978, -10.637859850621926 ], [ -41.494070980028184, -10.638975591092521 ], [ -41.497172733612913, -10.655915938590345 ], [ -41.510132929977559, -10.67276151773714 ], [ -41.519070895075146, -10.680066032375526 ], [ -41.532017385742101, -10.683071439831807 ], [ -41.537719658839514, -10.677363400609757 ], [ -41.54232023551701, -10.669957239106532 ], [ -41.545432625938936, -10.665123509560058 ], [ -41.548562220509908, -10.654259207459443 ], [ -41.552214817920941, -10.655221980850579 ], [ -41.550205783549579, -10.660773087551551 ], [ -41.551123996718253, -10.676910865769575 ], [ -41.553324575850709, -10.675971430543585 ], [ -41.556960282693581, -10.681181100538861 ], [ -41.560567896287253, -10.681439746695045 ], [ -41.561200800471028, -10.68602393578 ], [ -41.566652412863306, -10.686188626591557 ], [ -41.569324335097029, -10.706242019788364 ], [ -41.596586355519321, -10.714174833585139 ], [ -41.603510372328579, -10.722897838134029 ], [ -41.604142248538402, -10.741181936037517 ], [ -41.663471755085745, -10.705607092287742 ], [ -41.656704419322374, -10.694833421534733 ], [ -41.650833801119816, -10.68718346156858 ], [ -41.641057505934647, -10.675079075639765 ], [ -41.630505110845412, -10.660081197211593 ], [ -41.64606412461, -10.627646212796307 ], [ -41.640971368628492, -10.6219983877107 ], [ -41.630380758246289, -10.61749033052614 ], [ -41.620131543013073, -10.588565253589776 ], [ -41.571400020039214, -10.551332836072383 ] ] ] } }
]
}
