{
"type": "FeatureCollection",
"name": "reserva_legal",
"crs": { "type": "name", "properties": { "name": "urn:ogc:def:crs:OGC:1.3:CRS84" } },
"features": [
{ "type": "Feature", "properties": { "NAME": "RL", "LAYER": "Unknown Area Type", "F_small_FI": 0, "F_small_ID": 1515602, "F_small_NO": "Reserva Legal Proposta", "F_small_NU": 451.268, "F_small__1": "RENOVA", "KML_STYLE": "track00101", "KML_FOLDER": "RL UR", "tessellate": 1, "Shape_Leng": 28597.0711729, "Shape_Area": 26053811.9036 }, "geometry": { "type": "Polygon", "coordinates": [ [ [ -41.570770999735934, -10.551736000019119 ], [ -41.570732000234152, -10.551736000150791 ], [ -41.570693999371684, -10.551732000172615 ], [ -41.570656999704205, -10.551721999555591 ], [ -41.570325999767569, -10.551609999952158 ], [ -41.570039000116537, -10.557108999940372 ], [ -41.561282999785945, -10.559113999753254 ], [ -41.558789000094876, -10.55965800032129 ], [ -41.558510999619145, -10.559988000280441 ], [ -41.558098999906456, -10.560183999694845 ], [ -41.558049999850248, -10.560305000194976 ], [ -41.557997999893225, -10.560425999699101 ], [ -41.557990999539854, -10.560625000315165 ], [ -41.558170999843654, -10.561378000352551 ], [ -41.558380999629101, -10.561933999776791 ], [ -41.558362999486242, -10.562369999918626 ], [ -41.558341000040841, -10.562690000203897 ], [ -41.558184000125685, -10.563597000025821 ], [ -41.557879000073207, -10.564301999649919 ], [ -41.557763999366443, -10.564522000025743 ], [ -41.557590000207973, -10.564989999770573 ], [ -41.557578999734794, -10.56514800035978 ], [ -41.557575999717585, -10.565193000364735 ], [ -41.557544000046981, -10.565681000413635 ], [ -41.557010000098117, -10.56545299981074 ], [ -41.556807999538115, -10.565454999617048 ], [ -41.556593999914746, -10.565418999730284 ], [ -41.556322999421894, -10.565420999753005 ], [ -41.556210999670277, -10.565451999778618 ], [ -41.555988999483276, -10.565503999866355 ], [ -41.555860000052974, -10.565533999851491 ], [ -41.555620999726408, -10.565543000412916 ], [ -41.555430000168819, -10.565592999770789 ], [ -41.554846000047469, -10.565681999648451 ], [ -41.554483000042559, -10.565844000133362 ], [ -41.55397899957012, -10.56591400015232 ], [ -41.55373699975609, -10.565947000196646 ], [ -41.553529999954726, -10.56596100005682 ], [ -41.553121999499233, -10.565955999889834 ], [ -41.552892999506767, -10.565915000024123 ], [ -41.552573999794035, -10.565893999563425 ], [ -41.552321999950692, -10.565908000269555 ], [ -41.552239999418369, -10.565892999824529 ], [ -41.551888999665515, -10.565967000004873 ], [ -41.551228000137961, -10.56599199998031 ], [ -41.550341000138935, -10.566056999711954 ], [ -41.549198999715657, -10.566088000302296 ], [ -41.548624000217359, -10.566260000352118 ], [ -41.548277999474166, -10.566440999741959 ], [ -41.54816500001936, -10.566481000439675 ], [ -41.547986999818406, -10.566422000435063 ], [ -41.547883000185699, -10.566267999770206 ], [ -41.547897000248128, -10.566083000323852 ], [ -41.547993999922632, -10.565976999966884 ], [ -41.548413999546753, -10.565755999847251 ], [ -41.548963000114242, -10.565592000159921 ], [ -41.547411999732319, -10.56555899968944 ], [ -41.545989999876419, -10.565351000294543 ], [ -41.54365399969474, -10.59683899971284 ], [ -41.548979999450374, -10.596733000278906 ], [ -41.548795999883296, -10.60296399963471 ], [ -41.549105999574167, -10.60341600004112 ], [ -41.54918299966404, -10.603619999741561 ], [ -41.549346000013401, -10.604097999870723 ], [ -41.549358999946314, -10.604149000279662 ], [ -41.549372999969592, -10.60456700022907 ], [ -41.549378000065424, -10.60524600004365 ], [ -41.549389999467316, -10.605564000316969 ], [ -41.54950899946553, -10.606051000421042 ], [ -41.549763999390713, -10.606563999654448 ], [ -41.550185000107668, -10.607382000167375 ], [ -41.550383999986224, -10.607668000026788 ], [ -41.550864999483615, -10.608082000219682 ], [ -41.551230999688833, -10.608354999752198 ], [ -41.551692999625978, -10.608625999681177 ], [ -41.55195699988959, -10.608784000339448 ], [ -41.552330000230526, -10.609037999569344 ], [ -41.552367999632338, -10.609067999878425 ], [ -41.552633999788057, -10.609379999885894 ], [ -41.552856999724689, -10.609724000300194 ], [ -41.553080000093146, -10.610020000409641 ], [ -41.55334100010684, -10.61023699964092 ], [ -41.553614999613302, -10.610502999850327 ], [ -41.553648999484992, -10.610541000199079 ], [ -41.553757999431951, -10.610737999640495 ], [ -41.553779999490686, -10.610818000099389 ], [ -41.553772999585235, -10.610908000270603 ], [ -41.553748000189657, -10.610964000385058 ], [ -41.553902999941691, -10.611120000091372 ], [ -41.554376999795892, -10.611526999692046 ], [ -41.555690000071444, -10.611439000064413 ], [ -41.559492999483631, -10.609309000022392 ], [ -41.559655999467104, -10.608958999778611 ], [ -41.561378999930731, -10.604692000055493 ], [ -41.561270000222038, -10.602239000053398 ], [ -41.560940999515253, -10.599902000363778 ], [ -41.562525999588459, -10.599197999838717 ], [ -41.564548000057506, -10.599756999882063 ], [ -41.565084999504883, -10.602098999900017 ], [ -41.565066999402731, -10.605334000402888 ], [ -41.565052000055367, -10.608152999854052 ], [ -41.563579999535023, -10.613552000251534 ], [ -41.564926999989467, -10.614555999790221 ], [ -41.567116999458818, -10.615312000054642 ], [ -41.569533999357617, -10.616377000047873 ], [ -41.571814000233381, -10.619787000060649 ], [ -41.57182100022402, -10.619798999949307 ], [ -41.571835999462856, -10.619847999595081 ], [ -41.572021999485159, -10.620273000160692 ], [ -41.572201000217177, -10.620802999986385 ], [ -41.572280999727539, -10.621322000023731 ], [ -41.572376999753523, -10.62163200020186 ], [ -41.572459999990421, -10.622250000145812 ], [ -41.57255599993919, -10.622561000397871 ], [ -41.572639999699476, -10.623180000318042 ], [ -41.572582999439845, -10.624112000151941 ], [ -41.572637000043741, -10.624282999585526 ], [ -41.576383000240313, -10.623392000231172 ], [ -41.578675999670857, -10.623190000025398 ], [ -41.583565999994306, -10.625057999589719 ], [ -41.588675999337781, -10.622184999897424 ], [ -41.593509999491047, -10.618560999728398 ], [ -41.599084999566927, -10.605371000145738 ], [ -41.585868999769069, -10.597356999906287 ], [ -41.582759999808957, -10.596644999751412 ], [ -41.583112999560022, -10.589119999767405 ], [ -41.582302000098643, -10.588660999963626 ], [ -41.582366999961032, -10.588804999933982 ], [ -41.582357000094582, -10.588941000310376 ], [ -41.582281999551491, -10.589055999982484 ], [ -41.58216099991877, -10.589121999835612 ], [ -41.582021999699897, -10.5891239997145 ], [ -41.581525999943018, -10.588869000039352 ], [ -41.581122999599643, -10.588582000121001 ], [ -41.580765999731199, -10.588321000299588 ], [ -41.580627999651675, -10.58807500011773 ], [ -41.580350999335856, -10.587643999972094 ], [ -41.580271999822529, -10.587343999838556 ], [ -41.58022099938151, -10.586670000214838 ], [ -41.580219999913226, -10.58541800031788 ], [ -41.5802449994464, -10.584501999988179 ], [ -41.580238999984005, -10.584376000130726 ], [ -41.580155999757991, -10.584228000205909 ], [ -41.579967000157545, -10.583906999903416 ], [ -41.57994900012622, -10.583871000208836 ], [ -41.579936999888481, -10.583832999684546 ], [ -41.57972699991813, -10.583311999930219 ], [ -41.579771999454294, -10.583247999782255 ], [ -41.579805000052225, -10.58314199990477 ], [ -41.579783999585956, -10.582812000369843 ], [ -41.579796999361008, -10.582322000277902 ], [ -41.579812000044946, -10.582218000087243 ], [ -41.579773999648367, -10.582059000122502 ], [ -41.579703999878028, -10.581873999996727 ], [ -41.57958999985123, -10.581560999623267 ], [ -41.579569999821722, -10.581215999837278 ], [ -41.579546000135828, -10.58069900038082 ], [ -41.579536999660512, -10.580432000202526 ], [ -41.579528000178676, -10.580306999721889 ], [ -41.579615999661897, -10.57974700005318 ], [ -41.579653999565338, -10.579532999616951 ], [ -41.579656000181416, -10.579349999651532 ], [ -41.579466000020197, -10.578828999574915 ], [ -41.579198999557903, -10.578528000379338 ], [ -41.578948999427183, -10.578258999758754 ], [ -41.578668000225981, -10.577965999814008 ], [ -41.578320000036399, -10.577672999922227 ], [ -41.57798799949007, -10.5771010002127 ], [ -41.577858000004021, -10.576538000412659 ], [ -41.57771399956858, -10.576257999765726 ], [ -41.577538999892674, -10.575785000372909 ], [ -41.577312999915222, -10.575356000242355 ], [ -41.576820000071208, -10.574704999676573 ], [ -41.57630299984843, -10.573574000380354 ], [ -41.576273000125582, -10.573507000178511 ], [ -41.576046000028626, -10.572611999735797 ], [ -41.576012000124948, -10.57245300018889 ], [ -41.575900999844059, -10.57165599973729 ], [ -41.575943000097347, -10.571078999948723 ], [ -41.576031999413324, -10.570763999721464 ], [ -41.576182999894172, -10.57042800026241 ], [ -41.576297999926858, -10.570289999857241 ], [ -41.57633699994566, -10.57015799996589 ], [ -41.576288999631686, -10.569989000207118 ], [ -41.576179999892581, -10.569645999815682 ], [ -41.576027999402079, -10.569261000231075 ], [ -41.575920999796004, -10.568973999957249 ], [ -41.575789999697676, -10.568074000130602 ], [ -41.575670999942673, -10.567383999684115 ], [ -41.575666999778605, -10.566303000085648 ], [ -41.575715999937117, -10.565539000326146 ], [ -41.57626899983488, -10.565472999647577 ], [ -41.576326000129612, -10.565571999951933 ], [ -41.576518999591997, -10.565840000058797 ], [ -41.576800999376708, -10.566114999660329 ], [ -41.577084999984955, -10.566356000300686 ], [ -41.577448999864828, -10.566628000017996 ], [ -41.577584999883015, -10.56675199970968 ], [ -41.577971999484937, -10.567021999987384 ], [ -41.578151000028228, -10.567153000351167 ], [ -41.578510999578377, -10.56737899982053 ], [ -41.578967000067308, -10.567825999731685 ], [ -41.579244999483265, -10.568088000392102 ], [ -41.579456999787496, -10.56829399967768 ], [ -41.579723999584026, -10.568535999779391 ], [ -41.580220000031581, -10.568852000061346 ], [ -41.576210000017106, -10.554910999997126 ], [ -41.571655000116444, -10.551327000434746 ], [ -41.57152299951084, -10.551465000050161 ], [ -41.571034000241227, -10.551710999856189 ], [ -41.570770999735934, -10.551736000019119 ] ] ] } },
{ "type": "Feature", "properties": { "NAME": "RL", "LAYER": "Unknown Area Type", "F_small_FI": 0, "F_small_ID": 1515602, "F_small_NO": "Reserva Legal Proposta", "F_small_NU": 451.268, "F_small__1": "RENOVA", "KML_STYLE": "track00110", "KML_FOLDER": "RL UR", "tessellate": 1, "Shape_Leng": 4598.6370149599998, "Shape_Area": 734398.56252000004 }, "geometry": { "type": "Polygon", "coordinates": [ [ [ -41.538068999979039, -10.667272999880312 ], [ -41.538028000040775, -10.66727700029284 ], [ -41.537986999653491, -10.667274999974682 ], [ -41.537617000216613, -10.66722900002862 ], [ -41.537440999430949, -10.667182999661897 ], [ -41.537042999859246, -10.667170000246918 ], [ -41.536867999813971, -10.667207999881013 ], [ -41.536522999585671, -10.667328000168194 ], [ -41.53628700022184, -10.667370000196513 ], [ -41.535659000012451, -10.667625000416942 ], [ -41.535526000059058, -10.667663000390945 ], [ -41.535415000139011, -10.667692000198876 ], [ -41.535354999863991, -10.667702999925286 ], [ -41.53521099950072, -10.667691999633508 ], [ -41.534919999504467, -10.667668000017443 ], [ -41.534482000177093, -10.667695000152541 ], [ -41.533891000111154, -10.66765200036377 ], [ -41.533588999969211, -10.667626000406313 ], [ -41.53353799951141, -10.667618000260941 ], [ -41.533442999792776, -10.667583999711569 ], [ -41.533412000069163, -10.667571999959 ], [ -41.533251999362186, -10.667471999918016 ], [ -41.533136999641478, -10.667389999849737 ], [ -41.532943999737334, -10.667359000397747 ], [ -41.53263999973084, -10.667343999697115 ], [ -41.532338999768349, -10.667345999878595 ], [ -41.532138999394675, -10.667347999748452 ], [ -41.531932999696032, -10.66733100034047 ], [ -41.53178699992074, -10.667327000260208 ], [ -41.531632999504872, -10.667308000186967 ], [ -41.531602000154706, -10.66730200008262 ], [ -41.531559000171001, -10.667288000029542 ], [ -41.531499999626369, -10.667257000090487 ], [ -41.53142499992682, -10.667183000271431 ], [ -41.531101999807149, -10.667090000079515 ], [ -41.530957999961991, -10.667071000021004 ], [ -41.530920000159192, -10.667064000194868 ], [ -41.530667999520631, -10.666974999791057 ], [ -41.530531999589968, -10.666938000267111 ], [ -41.530180000015463, -10.666892000023308 ], [ -41.530143999963016, -10.66688500017967 ], [ -41.529904000203111, -10.666805000268491 ], [ -41.529760999880324, -10.666746999654341 ], [ -41.529588999737392, -10.666656000250303 ], [ -41.529316999527921, -10.666524999565452 ], [ -41.529080999648698, -10.666424999842988 ], [ -41.529006000124028, -10.666423000351921 ], [ -41.528923999377717, -10.666423999557054 ], [ -41.528746000177797, -10.666456999547302 ], [ -41.528553999534317, -10.666499000398764 ], [ -41.52851000027205, -10.66650600025342 ], [ -41.528338999829735, -10.666501999985726 ], [ -41.528298000154557, -10.666497999599279 ], [ -41.528257999651252, -10.666488000297861 ], [ -41.528219999579051, -10.666472999688208 ], [ -41.528161999775072, -10.666443000232011 ], [ -41.526178999925961, -10.669273000147022 ], [ -41.535987999794038, -10.671175999684891 ], [ -41.541002000002678, -10.672083000111959 ], [ -41.544328999544653, -10.666760000078439 ], [ -41.544258999693312, -10.666564999623011 ], [ -41.544223999845684, -10.666409000440206 ], [ -41.544218999424174, -10.666381999555895 ], [ -41.544213999718195, -10.666234999980036 ], [ -41.544155999536919, -10.666219999722982 ], [ -41.544079999585364, -10.666238000193825 ], [ -41.544025999762169, -10.666252999801303 ], [ -41.543998999442159, -10.666261000190984 ], [ -41.543737999909432, -10.666381999563487 ], [ -41.543359999701131, -10.666516999835752 ], [ -41.543049000198913, -10.666573999624475 ], [ -41.543015999495793, -10.666579000036387 ], [ -41.542883999529117, -10.666580000139286 ], [ -41.542752999860447, -10.666581000185932 ], [ -41.542511999730195, -10.666583000177607 ], [ -41.542245000001053, -10.66658900006289 ], [ -41.541970999589125, -10.666591999792582 ], [ -41.541561999827422, -10.666649000444036 ], [ -41.541300999655306, -10.666674000182509 ], [ -41.540719999997258, -10.666761000406403 ], [ -41.540451999840371, -10.666806000301733 ], [ -41.54008900022761, -10.666845000109017 ], [ -41.539749999783432, -10.666942000141976 ], [ -41.539472000022627, -10.667027000048634 ], [ -41.53944299970869, -10.667035000060856 ], [ -41.539142000159153, -10.667066000140503 ], [ -41.538474999767885, -10.667220000007079 ], [ -41.538275999941533, -10.667236000375873 ], [ -41.538068999979039, -10.667272999880312 ] ] ] } },
{ "type": "Feature", "properties": { "NAME": "RL", "LAYER": "Unknown Area Type", "F_small_FI": 0, "F_small_ID": 1515602, "F_small_NO": "Reserva Legal Proposta", "F_small_NU": 451.268, "F_small__1": "RENOVA", "KML_STYLE": "track00121", "KML_FOLDER": "RL UR", "tessellate": 1, "Shape_Leng": 15842.4023179, "Shape_Area": 12888279.6712 }, "geometry": { "type": "Polygon", "coordinates": [ [ [ -41.625683999813909, -10.686815999547935 ], [ -41.642217999684732, -10.718496999735812 ], [ -41.664223000187462, -10.70535200001552 ], [ -41.632361999504582, -10.662971999990196 ], [ -41.631785999331058, -10.662868999625175 ], [ -41.631162999622333, -10.662873999760246 ], [ -41.630633999850765, -10.662976999817785 ], [ -41.630139999376468, -10.663890999643613 ], [ -41.629565999797791, -10.665069999670125 ], [ -41.628868999738401, -10.666157000011143 ], [ -41.628574999832246, -10.66649700025097 ], [ -41.628136999541752, -10.666845999881723 ], [ -41.627681999373827, -10.667344000071628 ], [ -41.627457999720015, -10.667643000356721 ], [ -41.627114000023916, -10.668121000325286 ], [ -41.626289000036294, -10.669649000383155 ], [ -41.625568999804173, -10.670895000274021 ], [ -41.625328000184233, -10.67127599991556 ], [ -41.624867999899294, -10.671637000230596 ], [ -41.624205000162256, -10.672037999642875 ], [ -41.623401999489737, -10.6723310003443 ], [ -41.622500999817532, -10.672681999768663 ], [ -41.625553999819623, -10.686237999589652 ], [ -41.625683999813909, -10.686815999547935 ] ] ] } },
{ "type": "Feature", "properties": { "NAME": "RL", "LAYER": "Unknown Area Type", "F_small_FI": 0, "F_small_ID": 1515602, "F_small_NO": "Reserva Legal Proposta", "F_small_NU": 451.268, "F_small__1": "RENOVA", "KML_STYLE": "track00131", "KML_FOLDER": "RL UR", "tessellate": 1, "Shape_Leng": 7179.6264173999998, "Shape_Area": 2184170.8564900002 }, "geometry": { "type": "Polygon", "coordinates": [ [ [ -41.550361000207062, -10.664161999682241 ], [ -41.550382999969933, -10.667338000196475 ], [ -41.550458999384489, -10.667750000182595 ], [ -41.55048600010916, -10.6680650001553 ], [ -41.550501000196164, -10.668485000005095 ], [ -41.550393999829758, -10.668803999758758 ], [ -41.550448000217287, -10.676695000134035 ], [ -41.550642999662465, -10.676671999904563 ], [ -41.553421999490517, -10.67553799968675 ], [ -41.556462000106251, -10.681251999652464 ], [ -41.560062999881502, -10.681523999970155 ], [ -41.561854999939321, -10.679662999963702 ], [ -41.561528999987807, -10.676536999541764 ], [ -41.561115999400201, -10.673229000073857 ], [ -41.560348999820285, -10.673576999975865 ], [ -41.560195999632683, -10.67315199982164 ], [ -41.557108999555851, -10.665287000416736 ], [ -41.557122999418937, -10.665289000329041 ], [ -41.557602999992817, -10.661900000186971 ], [ -41.556019999660329, -10.65893499991976 ], [ -41.553855000196272, -10.657358000064734 ], [ -41.551885999737429, -10.655923000050526 ], [ -41.55033699981918, -10.6606749997812 ], [ -41.550357000045125, -10.663556000139687 ], [ -41.550361000207062, -10.664161999682241 ] ] ] } },
{ "type": "Feature", "properties": { "NAME": "RL", "LAYER": "Unknown Area Type", "F_small_FI": 0, "F_small_ID": 1515602, "F_small_NO": "Reserva Legal Proposta", "F_small_NU": 451.268, "F_small__1": "RENOVA", "KML_STYLE": "track0014", "KML_FOLDER": "RL UR", "tessellate": 1, "Shape_Leng": 2546.4360242100001, "Shape_Area": 321184.34499800002 }, "geometry": { "type": "Polygon", "coordinates": [ [ [ -41.572472999564049, -10.642516000414592 ], [ -41.57688699976044, -10.644296000284735 ], [ -41.578853000049598, -10.640972000282737 ], [ -41.57487300008971, -10.639882999781728 ], [ -41.574837999722412, -10.639874000415977 ], [ -41.571183999336498, -10.638874000012875 ], [ -41.569123999684734, -10.640617999781011 ], [ -41.56936500024603, -10.640664000390224 ], [ -41.569377999758117, -10.640667000307849 ], [ -41.569412999601589, -10.640677999902346 ], [ -41.570071999707203, -10.640935000107872 ], [ -41.570104999808791, -10.640949999840386 ], [ -41.570135000085045, -10.640970000115036 ], [ -41.570162999510394, -10.640993000373683 ], [ -41.57101799946426, -10.641815000273661 ], [ -41.571041999581247, -10.641840999637632 ], [ -41.571061999355898, -10.641870000032476 ], [ -41.572438999744918, -10.642499999919028 ], [ -41.572472999564049, -10.642516000414592 ] ] ] } },
{ "type": "Feature", "properties": { "NAME": "RL", "LAYER": "Unknown Area Type", "F_small_FI": 0, "F_small_ID": 1515602, "F_small_NO": "Reserva Legal Proposta", "F_small_NU": 451.268, "F_small__1": "RENOVA", "KML_STYLE": "track00150", "KML_FOLDER": "RL UR", "tessellate": 1, "Shape_Leng": 14441.233252, "Shape_Area": 10003788.0843 }, "geometry": { "type": "Polygon", "coordinates": [ [ [ -41.480676999886512, -10.597692999554242 ], [ -41.480351999407382, -10.598111000111246 ], [ -41.479847000136111, -10.597871000289505 ], [ -41.477564999385912, -10.598255999755676 ], [ -41.473423999891146, -10.597749000209443 ], [ -41.47068799957141, -10.597458999732314 ], [ -41.467813000011091, -10.599366999544401 ], [ -41.46516499993416, -10.605422999587594 ], [ -41.464556000291772, -10.606265999700899 ], [ -41.464757000027568, -10.607049999562685 ], [ -41.465440999844624, -10.609722999720896 ], [ -41.466217999824494, -10.612754999989081 ], [ -41.474303999389825, -10.630004000315264 ], [ -41.484640999624588, -10.634649999692005 ], [ -41.485876000101612, -10.637985999966054 ], [ -41.494147000206397, -10.638985000248788 ], [ -41.494261999488714, -10.639627999900844 ], [ -41.502350999687486, -10.638299000107329 ], [ -41.487673999497147, -10.615465999652303 ], [ -41.487598999415432, -10.615067999807676 ], [ -41.487038999496114, -10.615037000039719 ], [ -41.486917000243722, -10.614276000297041 ], [ -41.486901999575593, -10.613587000130916 ], [ -41.487060000147423, -10.613193999879428 ], [ -41.487055999601374, -10.613152000384799 ], [ -41.487047000210524, -10.612856999589532 ], [ -41.487055999634784, -10.612560999714193 ], [ -41.487085999758548, -10.612266999634564 ], [ -41.48713500017633, -10.611974999826343 ], [ -41.487202999646101, -10.61168700002151 ], [ -41.487288999632774, -10.6114040002998 ], [ -41.487395000281815, -10.611126999597275 ], [ -41.487499000120806, -10.610899999572792 ], [ -41.487474999866087, -10.610269000284275 ], [ -41.487609999717449, -10.608722000091984 ], [ -41.487522999939934, -10.608033999828306 ], [ -41.487393999834019, -10.606814999988149 ], [ -41.487132999477041, -10.606516999947745 ], [ -41.486690999782923, -10.606219999941137 ], [ -41.486567999984622, -10.606090000375856 ], [ -41.48659700019337, -10.605965000407044 ], [ -41.486600999800459, -10.605901000306087 ], [ -41.486440999838358, -10.605186999676922 ], [ -41.486486999485464, -10.604565000148364 ], [ -41.486363999955785, -10.603903999775673 ], [ -41.486105000025212, -10.603115000424699 ], [ -41.486108999965253, -10.602484000108175 ], [ -41.48592499958535, -10.601837999761111 ], [ -41.485041999683702, -10.600679999661969 ], [ -41.48481599987587, -10.599676000399093 ], [ -41.485025000090729, -10.598306000187751 ], [ -41.485276999667214, -10.597820000142075 ], [ -41.485216999473757, -10.597511999683594 ], [ -41.485085999824378, -10.597423999930887 ], [ -41.484879999657664, -10.597355000077048 ], [ -41.484405999800622, -10.597234999821652 ], [ -41.483692000220813, -10.597140999887145 ], [ -41.483302999387107, -10.597052000000636 ], [ -41.482969000232664, -10.596980000228942 ], [ -41.482448999850106, -10.596741000393752 ], [ -41.482084000016499, -10.596483000085499 ], [ -41.482050999755401, -10.596515000262373 ], [ -41.482041999755339, -10.596536000161676 ], [ -41.482030999664651, -10.596556000156671 ], [ -41.482010000162944, -10.596587000254853 ], [ -41.48198499972478, -10.596615000233511 ], [ -41.48195699955258, -10.59663900001285 ], [ -41.481109999938603, -10.597257999568752 ], [ -41.480676999886512, -10.597692999554242 ] ] ] } }
]
}
